<?xml version="1.0"?>
<gpx xmlns="http://www.topografix.com/GPX/1/1" xmlns:xsi="http://www.w3.org/2001/XMLSchema-instance" version="1.1" creator="AllTrails.com" xsi:schemaLocation="http://www.topografix.com/GPX/1/1 http://www.topografix.com/GPX/1/1/gpx.xsd">
  <metadata>
    <name><![CDATA[Juniper Flats to Big Bear OHV Road]]></name>
    <desc><![CDATA[]]></desc>
    <link href="http://www.alltrails.com">
      <text>AllTrails, LLC</text>
    </link>
    <bounds minlat="34.26429" minlon="-117.0691" maxlat="34.40038" maxlon="-116.91002"/>
  </metadata>
  <wpt lat="34.38594" lon="-117.0573">
    <name><![CDATA[Repeater station]]></name>
    <desc><![CDATA[Fun break area with rocks to climb and explore.]]></desc>
  </wpt>
  <trk>
    <name><![CDATA[Juniper Flats to Big Bear OHV Road]]></name>
    <src>AllTrails</src>
    <trkseg>
      <trkpt lat="34.39792" lon="-117.05452">
        <ele>1299.84</ele>
      </trkpt>
      <trkpt lat="34.39792" lon="-117.05452">
        <ele>1299.84</ele>
      </trkpt>
      <trkpt lat="34.39788" lon="-117.05487">
        <ele>1301.9</ele>
      </trkpt>
      <trkpt lat="34.39828" lon="-117.05526">
        <ele>1305.12</ele>
      </trkpt>
      <trkpt lat="34.39855" lon="-117.05537">
        <ele>1307.31</ele>
      </trkpt>
      <trkpt lat="34.39883" lon="-117.05575">
        <ele>1314.2</ele>
      </trkpt>
      <trkpt lat="34.39906" lon="-117.05576">
        <ele>1317.23</ele>
      </trkpt>
      <trkpt lat="34.39957" lon="-117.05646">
        <ele>1330.97</ele>
      </trkpt>
      <trkpt lat="34.39979" lon="-117.05685">
        <ele>1331.5</ele>
      </trkpt>
      <trkpt lat="34.4001" lon="-117.0574">
        <ele>1334.68</ele>
      </trkpt>
      <trkpt lat="34.40019" lon="-117.05794">
        <ele>1347.36</ele>
      </trkpt>
      <trkpt lat="34.40029" lon="-117.05847">
        <ele>1348.95</ele>
      </trkpt>
      <trkpt lat="34.40038" lon="-117.05901">
        <ele>1351.37</ele>
      </trkpt>
      <trkpt lat="34.40013" lon="-117.06005">
        <ele>1363.93</ele>
      </trkpt>
      <trkpt lat="34.39952" lon="-117.06051">
        <ele>1372.66</ele>
      </trkpt>
      <trkpt lat="34.399" lon="-117.06048">
        <ele>1376.63</ele>
      </trkpt>
      <trkpt lat="34.39848" lon="-117.06044">
        <ele>1387.16</ele>
      </trkpt>
      <trkpt lat="34.39794" lon="-117.06062">
        <ele>1386.14</ele>
      </trkpt>
      <trkpt lat="34.39748" lon="-117.0605">
        <ele>1390.66</ele>
      </trkpt>
      <trkpt lat="34.39692" lon="-117.06056">
        <ele>1397.56</ele>
      </trkpt>
      <trkpt lat="34.39672" lon="-117.06022">
        <ele>1407.7</ele>
      </trkpt>
      <trkpt lat="34.39634" lon="-117.06023">
        <ele>1412.6</ele>
      </trkpt>
      <trkpt lat="34.39597" lon="-117.06046">
        <ele>1412.6</ele>
      </trkpt>
      <trkpt lat="34.39585" lon="-117.0603">
        <ele>1418.66</ele>
      </trkpt>
      <trkpt lat="34.39594" lon="-117.06016">
        <ele>1424.4</ele>
      </trkpt>
      <trkpt lat="34.39662" lon="-117.05981">
        <ele>1423.66</ele>
      </trkpt>
      <trkpt lat="34.39703" lon="-117.0599">
        <ele>1423.16</ele>
      </trkpt>
      <trkpt lat="34.39786" lon="-117.05957">
        <ele>1435.16</ele>
      </trkpt>
      <trkpt lat="34.39817" lon="-117.05917">
        <ele>1441.49</ele>
      </trkpt>
      <trkpt lat="34.39811" lon="-117.05886">
        <ele>1442.2</ele>
      </trkpt>
      <trkpt lat="34.39745" lon="-117.0583">
        <ele>1449.63</ele>
      </trkpt>
      <trkpt lat="34.39691" lon="-117.05828">
        <ele>1455.64</ele>
      </trkpt>
      <trkpt lat="34.39636" lon="-117.05825">
        <ele>1463.04</ele>
      </trkpt>
      <trkpt lat="34.39606" lon="-117.05835">
        <ele>1466.81</ele>
      </trkpt>
      <trkpt lat="34.39584" lon="-117.05886">
        <ele>1469.54</ele>
      </trkpt>
      <trkpt lat="34.39551" lon="-117.05912">
        <ele>1475.47</ele>
      </trkpt>
      <trkpt lat="34.39528" lon="-117.0595">
        <ele>1483.72</ele>
      </trkpt>
      <trkpt lat="34.39463" lon="-117.05999">
        <ele>1487.32</ele>
      </trkpt>
      <trkpt lat="34.39417" lon="-117.0606">
        <ele>1498.41</ele>
      </trkpt>
      <trkpt lat="34.39436" lon="-117.06135">
        <ele>1503.26</ele>
      </trkpt>
      <trkpt lat="34.39429" lon="-117.06188">
        <ele>1507.34</ele>
      </trkpt>
      <trkpt lat="34.39379" lon="-117.06209">
        <ele>1516.95</ele>
      </trkpt>
      <trkpt lat="34.39331" lon="-117.06208">
        <ele>1520.61</ele>
      </trkpt>
      <trkpt lat="34.39284" lon="-117.06207">
        <ele>1524.18</ele>
      </trkpt>
      <trkpt lat="34.39236" lon="-117.06206">
        <ele>1532.26</ele>
      </trkpt>
      <trkpt lat="34.39188" lon="-117.06205">
        <ele>1533.58</ele>
      </trkpt>
      <trkpt lat="34.39146" lon="-117.06191">
        <ele>1544.26</ele>
      </trkpt>
      <trkpt lat="34.39111" lon="-117.06168">
        <ele>1545.53</ele>
      </trkpt>
      <trkpt lat="34.39106" lon="-117.06158">
        <ele>1546.22</ele>
      </trkpt>
      <trkpt lat="34.39106" lon="-117.06158">
        <ele>1546.22</ele>
      </trkpt>
      <trkpt lat="34.39068" lon="-117.06087">
        <ele>1557.5</ele>
      </trkpt>
      <trkpt lat="34.39047" lon="-117.06068">
        <ele>1557.51</ele>
      </trkpt>
      <trkpt lat="34.38991" lon="-117.06001">
        <ele>1567.71</ele>
      </trkpt>
      <trkpt lat="34.38971" lon="-117.05995">
        <ele>1569.34</ele>
      </trkpt>
      <trkpt lat="34.38958" lon="-117.06004">
        <ele>1570.01</ele>
      </trkpt>
      <trkpt lat="34.38944" lon="-117.06014">
        <ele>1572.29</ele>
      </trkpt>
      <trkpt lat="34.38946" lon="-117.06063">
        <ele>1575.08</ele>
      </trkpt>
      <trkpt lat="34.38905" lon="-117.06159">
        <ele>1583.78</ele>
      </trkpt>
      <trkpt lat="34.38883" lon="-117.06179">
        <ele>1591.03</ele>
      </trkpt>
      <trkpt lat="34.38838" lon="-117.06183">
        <ele>1593.83</ele>
      </trkpt>
      <trkpt lat="34.38819" lon="-117.06159">
        <ele>1596.56</ele>
      </trkpt>
      <trkpt lat="34.38775" lon="-117.06082">
        <ele>1606.69</ele>
      </trkpt>
      <trkpt lat="34.38709" lon="-117.05972">
        <ele>1615.75</ele>
      </trkpt>
      <trkpt lat="34.38695" lon="-117.05932">
        <ele>1618.79</ele>
      </trkpt>
      <trkpt lat="34.3868" lon="-117.05909">
        <ele>1623.56</ele>
      </trkpt>
      <trkpt lat="34.38662" lon="-117.05906">
        <ele>1625.34</ele>
      </trkpt>
      <trkpt lat="34.38641" lon="-117.05917">
        <ele>1630.82</ele>
      </trkpt>
      <trkpt lat="34.3862" lon="-117.05967">
        <ele>1633.27</ele>
      </trkpt>
      <trkpt lat="34.38598" lon="-117.05989">
        <ele>1633.47</ele>
      </trkpt>
      <trkpt lat="34.38571" lon="-117.06001">
        <ele>1635.26</ele>
      </trkpt>
      <trkpt lat="34.38554" lon="-117.05984">
        <ele>1638.5</ele>
      </trkpt>
      <trkpt lat="34.38557" lon="-117.05943">
        <ele>1641.89</ele>
      </trkpt>
      <trkpt lat="34.38539" lon="-117.05908">
        <ele>1649.86</ele>
      </trkpt>
      <trkpt lat="34.38511" lon="-117.05863">
        <ele>1654.12</ele>
      </trkpt>
      <trkpt lat="34.38482" lon="-117.0583">
        <ele>1659.64</ele>
      </trkpt>
      <trkpt lat="34.3848" lon="-117.05819">
        <ele>1662.58</ele>
      </trkpt>
      <trkpt lat="34.38487" lon="-117.05806">
        <ele>1665.23</ele>
      </trkpt>
      <trkpt lat="34.38506" lon="-117.05808">
        <ele>1665.76</ele>
      </trkpt>
      <trkpt lat="34.38524" lon="-117.05827">
        <ele>1664.55</ele>
      </trkpt>
      <trkpt lat="34.3855" lon="-117.05847">
        <ele>1665.66</ele>
      </trkpt>
      <trkpt lat="34.38566" lon="-117.0584">
        <ele>1668.56</ele>
      </trkpt>
      <trkpt lat="34.38575" lon="-117.05828">
        <ele>1671.19</ele>
      </trkpt>
      <trkpt lat="34.38605" lon="-117.05793">
        <ele>1672.89</ele>
      </trkpt>
      <trkpt lat="34.38616" lon="-117.05757">
        <ele>1673.47</ele>
      </trkpt>
      <trkpt lat="34.3862" lon="-117.05731">
        <ele>1672.94</ele>
      </trkpt>
      <trkpt lat="34.38597" lon="-117.05714">
        <ele>1674.64</ele>
      </trkpt>
      <trkpt lat="34.38579" lon="-117.05714">
        <ele>1678.52</ele>
      </trkpt>
      <trkpt lat="34.38536" lon="-117.05673">
        <ele>1685.22</ele>
      </trkpt>
      <trkpt lat="34.38497" lon="-117.05679">
        <ele>1692.1</ele>
      </trkpt>
      <trkpt lat="34.38397" lon="-117.05598">
        <ele>1709.22</ele>
      </trkpt>
      <trkpt lat="34.38288" lon="-117.05531">
        <ele>1718.41</ele>
      </trkpt>
      <trkpt lat="34.38247" lon="-117.05484">
        <ele>1719.22</ele>
      </trkpt>
      <trkpt lat="34.38203" lon="-117.05475">
        <ele>1720.08</ele>
      </trkpt>
      <trkpt lat="34.38197" lon="-117.05474">
        <ele>1720.72</ele>
      </trkpt>
      <trkpt lat="34.38154" lon="-117.05495">
        <ele>1723.54</ele>
      </trkpt>
      <trkpt lat="34.38077" lon="-117.05509">
        <ele>1725.34</ele>
      </trkpt>
      <trkpt lat="34.38031" lon="-117.05493">
        <ele>1726.84</ele>
      </trkpt>
      <trkpt lat="34.38011" lon="-117.05465">
        <ele>1726.97</ele>
      </trkpt>
      <trkpt lat="34.37992" lon="-117.05459">
        <ele>1725.56</ele>
      </trkpt>
      <trkpt lat="34.3797" lon="-117.05469">
        <ele>1723.11</ele>
      </trkpt>
      <trkpt lat="34.37964" lon="-117.05468">
        <ele>1722.57</ele>
      </trkpt>
      <trkpt lat="34.37951" lon="-117.05462">
        <ele>1721.81</ele>
      </trkpt>
      <trkpt lat="34.37933" lon="-117.05443">
        <ele>1721.92</ele>
      </trkpt>
      <trkpt lat="34.37904" lon="-117.0544">
        <ele>1719.48</ele>
      </trkpt>
      <trkpt lat="34.37886" lon="-117.05441">
        <ele>1720.37</ele>
      </trkpt>
      <trkpt lat="34.37869" lon="-117.05482">
        <ele>1718.09</ele>
      </trkpt>
      <trkpt lat="34.37848" lon="-117.05481">
        <ele>1719.08</ele>
      </trkpt>
      <trkpt lat="34.37809" lon="-117.05457">
        <ele>1713.87</ele>
      </trkpt>
      <trkpt lat="34.37775" lon="-117.05585">
        <ele>1720.55</ele>
      </trkpt>
      <trkpt lat="34.37748" lon="-117.05606">
        <ele>1720.34</ele>
      </trkpt>
      <trkpt lat="34.37709" lon="-117.05557">
        <ele>1720.69</ele>
      </trkpt>
      <trkpt lat="34.37682" lon="-117.05587">
        <ele>1716.95</ele>
      </trkpt>
      <trkpt lat="34.3763" lon="-117.05599">
        <ele>1717.16</ele>
      </trkpt>
      <trkpt lat="34.37624" lon="-117.05628">
        <ele>1706.14</ele>
      </trkpt>
      <trkpt lat="34.37631" lon="-117.0565">
        <ele>1705.23</ele>
      </trkpt>
      <trkpt lat="34.37645" lon="-117.05671">
        <ele>1710.56</ele>
      </trkpt>
      <trkpt lat="34.37663" lon="-117.05693">
        <ele>1712.88</ele>
      </trkpt>
      <trkpt lat="34.37675" lon="-117.05735">
        <ele>1720.9</ele>
      </trkpt>
      <trkpt lat="34.37675" lon="-117.05735">
        <ele>1720.9</ele>
      </trkpt>
      <trkpt lat="34.37679" lon="-117.05749">
        <ele>1723.45</ele>
      </trkpt>
      <trkpt lat="34.37679" lon="-117.05823">
        <ele>1726.97</ele>
      </trkpt>
      <trkpt lat="34.37672" lon="-117.05854">
        <ele>1731.41</ele>
      </trkpt>
      <trkpt lat="34.37649" lon="-117.05865">
        <ele>1738.72</ele>
      </trkpt>
      <trkpt lat="34.37633" lon="-117.05903">
        <ele>1743.27</ele>
      </trkpt>
      <trkpt lat="34.37617" lon="-117.05912">
        <ele>1745.73</ele>
      </trkpt>
      <trkpt lat="34.37578" lon="-117.05945">
        <ele>1746.12</ele>
      </trkpt>
      <trkpt lat="34.37545" lon="-117.0603">
        <ele>1753.45</ele>
      </trkpt>
      <trkpt lat="34.37532" lon="-117.06044">
        <ele>1751.83</ele>
      </trkpt>
      <trkpt lat="34.375" lon="-117.06061">
        <ele>1752.82</ele>
      </trkpt>
      <trkpt lat="34.37458" lon="-117.06124">
        <ele>1755.86</ele>
      </trkpt>
      <trkpt lat="34.37402" lon="-117.06158">
        <ele>1764.04</ele>
      </trkpt>
      <trkpt lat="34.37374" lon="-117.06191">
        <ele>1767.0</ele>
      </trkpt>
      <trkpt lat="34.37337" lon="-117.06183">
        <ele>1769.3</ele>
      </trkpt>
      <trkpt lat="34.37317" lon="-117.06194">
        <ele>1773.48</ele>
      </trkpt>
      <trkpt lat="34.37287" lon="-117.06144">
        <ele>1778.45</ele>
      </trkpt>
      <trkpt lat="34.37262" lon="-117.06138">
        <ele>1779.07</ele>
      </trkpt>
      <trkpt lat="34.37221" lon="-117.06167">
        <ele>1782.13</ele>
      </trkpt>
      <trkpt lat="34.37175" lon="-117.0617">
        <ele>1784.0</ele>
      </trkpt>
      <trkpt lat="34.37104" lon="-117.06122">
        <ele>1785.0</ele>
      </trkpt>
      <trkpt lat="34.3695" lon="-117.06057">
        <ele>1780.0</ele>
      </trkpt>
      <trkpt lat="34.36902" lon="-117.06055">
        <ele>1778.45</ele>
      </trkpt>
      <trkpt lat="34.36881" lon="-117.06049">
        <ele>1778.0</ele>
      </trkpt>
      <trkpt lat="34.36859" lon="-117.06038">
        <ele>1778.0</ele>
      </trkpt>
      <trkpt lat="34.36822" lon="-117.06027">
        <ele>1778.79</ele>
      </trkpt>
      <trkpt lat="34.36792" lon="-117.06028">
        <ele>1777.98</ele>
      </trkpt>
      <trkpt lat="34.36746" lon="-117.0603">
        <ele>1778.0</ele>
      </trkpt>
      <trkpt lat="34.36709" lon="-117.06024">
        <ele>1777.23</ele>
      </trkpt>
      <trkpt lat="34.36689" lon="-117.0601">
        <ele>1776.41</ele>
      </trkpt>
      <trkpt lat="34.36663" lon="-117.06007">
        <ele>1773.85</ele>
      </trkpt>
      <trkpt lat="34.36617" lon="-117.06011">
        <ele>1769.0</ele>
      </trkpt>
      <trkpt lat="34.36591" lon="-117.06007">
        <ele>1768.0</ele>
      </trkpt>
      <trkpt lat="34.36539" lon="-117.05977">
        <ele>1769.38</ele>
      </trkpt>
      <trkpt lat="34.36516" lon="-117.05954">
        <ele>1771.27</ele>
      </trkpt>
      <trkpt lat="34.36503" lon="-117.05945">
        <ele>1772.68</ele>
      </trkpt>
      <trkpt lat="34.36482" lon="-117.05943">
        <ele>1774.15</ele>
      </trkpt>
      <trkpt lat="34.36468" lon="-117.05935">
        <ele>1775.47</ele>
      </trkpt>
      <trkpt lat="34.36462" lon="-117.05931">
        <ele>1776.1</ele>
      </trkpt>
      <trkpt lat="34.36436" lon="-117.05924">
        <ele>1778.91</ele>
      </trkpt>
      <trkpt lat="34.36408" lon="-117.05922">
        <ele>1780.94</ele>
      </trkpt>
      <trkpt lat="34.36388" lon="-117.05918">
        <ele>1782.1</ele>
      </trkpt>
      <trkpt lat="34.36362" lon="-117.05923">
        <ele>1783.0</ele>
      </trkpt>
      <trkpt lat="34.36343" lon="-117.05918">
        <ele>1781.04</ele>
      </trkpt>
      <trkpt lat="34.36317" lon="-117.05895">
        <ele>1778.32</ele>
      </trkpt>
      <trkpt lat="34.36286" lon="-117.05868">
        <ele>1777.25</ele>
      </trkpt>
      <trkpt lat="34.36248" lon="-117.0584">
        <ele>1783.5</ele>
      </trkpt>
      <trkpt lat="34.36232" lon="-117.05835">
        <ele>1784.82</ele>
      </trkpt>
      <trkpt lat="34.36212" lon="-117.05839">
        <ele>1785.32</ele>
      </trkpt>
      <trkpt lat="34.36188" lon="-117.05829">
        <ele>1785.1</ele>
      </trkpt>
      <trkpt lat="34.36163" lon="-117.05808">
        <ele>1786.34</ele>
      </trkpt>
      <trkpt lat="34.36146" lon="-117.05799">
        <ele>1785.93</ele>
      </trkpt>
      <trkpt lat="34.36117" lon="-117.05791">
        <ele>1784.84</ele>
      </trkpt>
      <trkpt lat="34.36091" lon="-117.05778">
        <ele>1784.0</ele>
      </trkpt>
      <trkpt lat="34.36049" lon="-117.05756">
        <ele>1784.1</ele>
      </trkpt>
      <trkpt lat="34.3603" lon="-117.05752">
        <ele>1784.0</ele>
      </trkpt>
      <trkpt lat="34.36006" lon="-117.05741">
        <ele>1784.0</ele>
      </trkpt>
      <trkpt lat="34.35969" lon="-117.05727">
        <ele>1783.82</ele>
      </trkpt>
      <trkpt lat="34.35945" lon="-117.05713">
        <ele>1784.0</ele>
      </trkpt>
      <trkpt lat="34.35907" lon="-117.05702">
        <ele>1785.22</ele>
      </trkpt>
      <trkpt lat="34.35845" lon="-117.05689">
        <ele>1788.0</ele>
      </trkpt>
      <trkpt lat="34.35834" lon="-117.05688">
        <ele>1788.0</ele>
      </trkpt>
      <trkpt lat="34.35834" lon="-117.05688">
        <ele>1788.0</ele>
      </trkpt>
      <trkpt lat="34.35807" lon="-117.05685">
        <ele>1788.0</ele>
      </trkpt>
      <trkpt lat="34.35778" lon="-117.05691">
        <ele>1788.0</ele>
      </trkpt>
      <trkpt lat="34.35701" lon="-117.0569">
        <ele>1786.48</ele>
      </trkpt>
      <trkpt lat="34.35673" lon="-117.05694">
        <ele>1785.7</ele>
      </trkpt>
      <trkpt lat="34.35634" lon="-117.05708">
        <ele>1783.54</ele>
      </trkpt>
      <trkpt lat="34.35613" lon="-117.05713">
        <ele>1783.0</ele>
      </trkpt>
      <trkpt lat="34.35573" lon="-117.05715">
        <ele>1784.0</ele>
      </trkpt>
      <trkpt lat="34.35506" lon="-117.05721">
        <ele>1784.0</ele>
      </trkpt>
      <trkpt lat="34.35464" lon="-117.05723">
        <ele>1783.93</ele>
      </trkpt>
      <trkpt lat="34.35444" lon="-117.05728">
        <ele>1783.0</ele>
      </trkpt>
      <trkpt lat="34.35432" lon="-117.05735">
        <ele>1783.0</ele>
      </trkpt>
      <trkpt lat="34.3539" lon="-117.05743">
        <ele>1782.0</ele>
      </trkpt>
      <trkpt lat="34.35366" lon="-117.05752">
        <ele>1781.11</ele>
      </trkpt>
      <trkpt lat="34.35347" lon="-117.0577">
        <ele>1780.48</ele>
      </trkpt>
      <trkpt lat="34.35314" lon="-117.05787">
        <ele>1778.91</ele>
      </trkpt>
      <trkpt lat="34.35293" lon="-117.05806">
        <ele>1777.66</ele>
      </trkpt>
      <trkpt lat="34.35248" lon="-117.05827">
        <ele>1774.78</ele>
      </trkpt>
      <trkpt lat="34.35238" lon="-117.05837">
        <ele>1774.0</ele>
      </trkpt>
      <trkpt lat="34.35218" lon="-117.05863">
        <ele>1772.64</ele>
      </trkpt>
      <trkpt lat="34.352" lon="-117.05876">
        <ele>1771.6</ele>
      </trkpt>
      <trkpt lat="34.35181" lon="-117.0588">
        <ele>1770.55</ele>
      </trkpt>
      <trkpt lat="34.35158" lon="-117.05885">
        <ele>1770.0</ele>
      </trkpt>
      <trkpt lat="34.3514" lon="-117.05895">
        <ele>1770.0</ele>
      </trkpt>
      <trkpt lat="34.35126" lon="-117.05906">
        <ele>1768.94</ele>
      </trkpt>
      <trkpt lat="34.35113" lon="-117.05931">
        <ele>1768.2</ele>
      </trkpt>
      <trkpt lat="34.35094" lon="-117.05965">
        <ele>1766.12</ele>
      </trkpt>
      <trkpt lat="34.35073" lon="-117.05983">
        <ele>1763.98</ele>
      </trkpt>
      <trkpt lat="34.35056" lon="-117.05984">
        <ele>1763.03</ele>
      </trkpt>
      <trkpt lat="34.35003" lon="-117.0598">
        <ele>1764.84</ele>
      </trkpt>
      <trkpt lat="34.34924" lon="-117.05974">
        <ele>1770.02</ele>
      </trkpt>
      <trkpt lat="34.34897" lon="-117.0598">
        <ele>1771.26</ele>
      </trkpt>
      <trkpt lat="34.3488" lon="-117.05993">
        <ele>1771.73</ele>
      </trkpt>
      <trkpt lat="34.34864" lon="-117.06017">
        <ele>1771.11</ele>
      </trkpt>
      <trkpt lat="34.34844" lon="-117.06061">
        <ele>1769.0</ele>
      </trkpt>
      <trkpt lat="34.34824" lon="-117.06092">
        <ele>1767.07</ele>
      </trkpt>
      <trkpt lat="34.34824" lon="-117.06092">
        <ele>1767.07</ele>
      </trkpt>
      <trkpt lat="34.34802" lon="-117.06106">
        <ele>1767.72</ele>
      </trkpt>
      <trkpt lat="34.3478" lon="-117.06132">
        <ele>1767.5</ele>
      </trkpt>
      <trkpt lat="34.34743" lon="-117.0616">
        <ele>1767.54</ele>
      </trkpt>
      <trkpt lat="34.34703" lon="-117.0619">
        <ele>1764.0</ele>
      </trkpt>
      <trkpt lat="34.34663" lon="-117.06225">
        <ele>1761.7</ele>
      </trkpt>
      <trkpt lat="34.3457" lon="-117.06268">
        <ele>1769.02</ele>
      </trkpt>
      <trkpt lat="34.34552" lon="-117.06266">
        <ele>1770.27</ele>
      </trkpt>
      <trkpt lat="34.34508" lon="-117.06253">
        <ele>1771.68</ele>
      </trkpt>
      <trkpt lat="34.34482" lon="-117.06252">
        <ele>1771.78</ele>
      </trkpt>
      <trkpt lat="34.34459" lon="-117.06256">
        <ele>1770.92</ele>
      </trkpt>
      <trkpt lat="34.34431" lon="-117.06267">
        <ele>1767.54</ele>
      </trkpt>
      <trkpt lat="34.34411" lon="-117.06288">
        <ele>1767.55</ele>
      </trkpt>
      <trkpt lat="34.34372" lon="-117.06343">
        <ele>1764.78</ele>
      </trkpt>
      <trkpt lat="34.34346" lon="-117.06357">
        <ele>1764.24</ele>
      </trkpt>
      <trkpt lat="34.34333" lon="-117.06376">
        <ele>1761.39</ele>
      </trkpt>
      <trkpt lat="34.34325" lon="-117.06395">
        <ele>1758.34</ele>
      </trkpt>
      <trkpt lat="34.34321" lon="-117.06413">
        <ele>1756.4</ele>
      </trkpt>
      <trkpt lat="34.3431" lon="-117.06422">
        <ele>1755.42</ele>
      </trkpt>
      <trkpt lat="34.34288" lon="-117.06432">
        <ele>1754.34</ele>
      </trkpt>
      <trkpt lat="34.34257" lon="-117.06427">
        <ele>1751.67</ele>
      </trkpt>
      <trkpt lat="34.34228" lon="-117.06418">
        <ele>1750.0</ele>
      </trkpt>
      <trkpt lat="34.34195" lon="-117.06441">
        <ele>1753.09</ele>
      </trkpt>
      <trkpt lat="34.34178" lon="-117.06441">
        <ele>1754.23</ele>
      </trkpt>
      <trkpt lat="34.34164" lon="-117.06433">
        <ele>1754.95</ele>
      </trkpt>
      <trkpt lat="34.34138" lon="-117.06409">
        <ele>1755.0</ele>
      </trkpt>
      <trkpt lat="34.34105" lon="-117.06398">
        <ele>1756.0</ele>
      </trkpt>
      <trkpt lat="34.34079" lon="-117.0639">
        <ele>1758.35</ele>
      </trkpt>
      <trkpt lat="34.34063" lon="-117.06379">
        <ele>1761.08</ele>
      </trkpt>
      <trkpt lat="34.34051" lon="-117.06356">
        <ele>1764.82</ele>
      </trkpt>
      <trkpt lat="34.34034" lon="-117.06349">
        <ele>1766.41</ele>
      </trkpt>
      <trkpt lat="34.34014" lon="-117.06349">
        <ele>1767.8</ele>
      </trkpt>
      <trkpt lat="34.3399" lon="-117.06359">
        <ele>1767.52</ele>
      </trkpt>
      <trkpt lat="34.33964" lon="-117.06378">
        <ele>1769.89</ele>
      </trkpt>
      <trkpt lat="34.33932" lon="-117.06411">
        <ele>1764.91</ele>
      </trkpt>
      <trkpt lat="34.33914" lon="-117.06416">
        <ele>1761.71</ele>
      </trkpt>
      <trkpt lat="34.33879" lon="-117.0642">
        <ele>1758.29</ele>
      </trkpt>
      <trkpt lat="34.3386" lon="-117.06432">
        <ele>1756.3</ele>
      </trkpt>
      <trkpt lat="34.33844" lon="-117.06451">
        <ele>1751.35</ele>
      </trkpt>
      <trkpt lat="34.33833" lon="-117.06472">
        <ele>1749.96</ele>
      </trkpt>
      <trkpt lat="34.33827" lon="-117.06501">
        <ele>1749.32</ele>
      </trkpt>
      <trkpt lat="34.33813" lon="-117.06527">
        <ele>1745.9</ele>
      </trkpt>
      <trkpt lat="34.33777" lon="-117.0657">
        <ele>1743.52</ele>
      </trkpt>
      <trkpt lat="34.33721" lon="-117.06659">
        <ele>1739.91</ele>
      </trkpt>
      <trkpt lat="34.33694" lon="-117.06709">
        <ele>1730.54</ele>
      </trkpt>
      <trkpt lat="34.33673" lon="-117.06766">
        <ele>1730.0</ele>
      </trkpt>
      <trkpt lat="34.33645" lon="-117.06819">
        <ele>1730.19</ele>
      </trkpt>
      <trkpt lat="34.33635" lon="-117.06847">
        <ele>1729.52</ele>
      </trkpt>
      <trkpt lat="34.33619" lon="-117.06864">
        <ele>1728.59</ele>
      </trkpt>
      <trkpt lat="34.33603" lon="-117.06869">
        <ele>1727.25</ele>
      </trkpt>
      <trkpt lat="34.33584" lon="-117.06863">
        <ele>1727.8</ele>
      </trkpt>
      <trkpt lat="34.33563" lon="-117.06866">
        <ele>1725.75</ele>
      </trkpt>
      <trkpt lat="34.33538" lon="-117.06891">
        <ele>1718.88</ele>
      </trkpt>
      <trkpt lat="34.33487" lon="-117.0691">
        <ele>1715.32</ele>
      </trkpt>
      <trkpt lat="34.33472" lon="-117.06907">
        <ele>1714.04</ele>
      </trkpt>
      <trkpt lat="34.33431" lon="-117.06856">
        <ele>1715.3</ele>
      </trkpt>
      <trkpt lat="34.33427" lon="-117.06837">
        <ele>1716.07</ele>
      </trkpt>
      <trkpt lat="34.33434" lon="-117.06803">
        <ele>1717.24</ele>
      </trkpt>
      <trkpt lat="34.33441" lon="-117.06764">
        <ele>1718.0</ele>
      </trkpt>
      <trkpt lat="34.3344" lon="-117.06746">
        <ele>1718.0</ele>
      </trkpt>
      <trkpt lat="34.33427" lon="-117.06726">
        <ele>1718.0</ele>
      </trkpt>
      <trkpt lat="34.33415" lon="-117.06723">
        <ele>1718.92</ele>
      </trkpt>
      <trkpt lat="34.33378" lon="-117.06724">
        <ele>1719.14</ele>
      </trkpt>
      <trkpt lat="34.33314" lon="-117.0673">
        <ele>1723.16</ele>
      </trkpt>
      <trkpt lat="34.33291" lon="-117.06725">
        <ele>1722.3</ele>
      </trkpt>
      <trkpt lat="34.33234" lon="-117.06703">
        <ele>1718.0</ele>
      </trkpt>
      <trkpt lat="34.33203" lon="-117.06683">
        <ele>1717.08</ele>
      </trkpt>
      <trkpt lat="34.33185" lon="-117.06664">
        <ele>1715.26</ele>
      </trkpt>
      <trkpt lat="34.33174" lon="-117.06641">
        <ele>1714.79</ele>
      </trkpt>
      <trkpt lat="34.33174" lon="-117.06624">
        <ele>1715.58</ele>
      </trkpt>
      <trkpt lat="34.33174" lon="-117.06624">
        <ele>1715.58</ele>
      </trkpt>
      <trkpt lat="34.33175" lon="-117.06606">
        <ele>1715.8</ele>
      </trkpt>
      <trkpt lat="34.33185" lon="-117.06543">
        <ele>1716.98</ele>
      </trkpt>
      <trkpt lat="34.33194" lon="-117.06503">
        <ele>1717.95</ele>
      </trkpt>
      <trkpt lat="34.33208" lon="-117.06464">
        <ele>1718.46</ele>
      </trkpt>
      <trkpt lat="34.33213" lon="-117.06433">
        <ele>1718.0</ele>
      </trkpt>
      <trkpt lat="34.33208" lon="-117.0641">
        <ele>1718.39</ele>
      </trkpt>
      <trkpt lat="34.3319" lon="-117.06381">
        <ele>1719.92</ele>
      </trkpt>
      <trkpt lat="34.33185" lon="-117.06352">
        <ele>1720.96</ele>
      </trkpt>
      <trkpt lat="34.33181" lon="-117.06313">
        <ele>1724.56</ele>
      </trkpt>
      <trkpt lat="34.33158" lon="-117.06291">
        <ele>1726.97</ele>
      </trkpt>
      <trkpt lat="34.33153" lon="-117.06277">
        <ele>1728.04</ele>
      </trkpt>
      <trkpt lat="34.33151" lon="-117.06239">
        <ele>1729.75</ele>
      </trkpt>
      <trkpt lat="34.33128" lon="-117.0619">
        <ele>1733.48</ele>
      </trkpt>
      <trkpt lat="34.33067" lon="-117.06137">
        <ele>1737.41</ele>
      </trkpt>
      <trkpt lat="34.33048" lon="-117.06131">
        <ele>1738.82</ele>
      </trkpt>
      <trkpt lat="34.33023" lon="-117.06129">
        <ele>1740.07</ele>
      </trkpt>
      <trkpt lat="34.32977" lon="-117.06139">
        <ele>1742.48</ele>
      </trkpt>
      <trkpt lat="34.32953" lon="-117.06132">
        <ele>1743.76</ele>
      </trkpt>
      <trkpt lat="34.32932" lon="-117.06122">
        <ele>1744.94</ele>
      </trkpt>
      <trkpt lat="34.32908" lon="-117.061">
        <ele>1749.15</ele>
      </trkpt>
      <trkpt lat="34.3286" lon="-117.06083">
        <ele>1756.51</ele>
      </trkpt>
      <trkpt lat="34.32848" lon="-117.06073">
        <ele>1761.03</ele>
      </trkpt>
      <trkpt lat="34.32832" lon="-117.06043">
        <ele>1764.08</ele>
      </trkpt>
      <trkpt lat="34.32826" lon="-117.06015">
        <ele>1765.66</ele>
      </trkpt>
      <trkpt lat="34.32817" lon="-117.05999">
        <ele>1766.87</ele>
      </trkpt>
      <trkpt lat="34.32799" lon="-117.05991">
        <ele>1770.42</ele>
      </trkpt>
      <trkpt lat="34.32787" lon="-117.05968">
        <ele>1771.55</ele>
      </trkpt>
      <trkpt lat="34.32772" lon="-117.05953">
        <ele>1772.95</ele>
      </trkpt>
      <trkpt lat="34.32737" lon="-117.05937">
        <ele>1779.4</ele>
      </trkpt>
      <trkpt lat="34.3272" lon="-117.05938">
        <ele>1781.02</ele>
      </trkpt>
      <trkpt lat="34.32677" lon="-117.05959">
        <ele>1791.41</ele>
      </trkpt>
      <trkpt lat="34.32661" lon="-117.05962">
        <ele>1793.4</ele>
      </trkpt>
      <trkpt lat="34.32623" lon="-117.05952">
        <ele>1793.76</ele>
      </trkpt>
      <trkpt lat="34.32585" lon="-117.05948">
        <ele>1795.08</ele>
      </trkpt>
      <trkpt lat="34.32572" lon="-117.05939">
        <ele>1794.05</ele>
      </trkpt>
      <trkpt lat="34.32543" lon="-117.05937">
        <ele>1797.03</ele>
      </trkpt>
      <trkpt lat="34.32506" lon="-117.05918">
        <ele>1800.35</ele>
      </trkpt>
      <trkpt lat="34.32486" lon="-117.05916">
        <ele>1801.96</ele>
      </trkpt>
      <trkpt lat="34.32448" lon="-117.05887">
        <ele>1803.62</ele>
      </trkpt>
      <trkpt lat="34.3241" lon="-117.05871">
        <ele>1804.74</ele>
      </trkpt>
      <trkpt lat="34.32378" lon="-117.05844">
        <ele>1804.3</ele>
      </trkpt>
      <trkpt lat="34.32358" lon="-117.05806">
        <ele>1804.0</ele>
      </trkpt>
      <trkpt lat="34.3236" lon="-117.05781">
        <ele>1804.65</ele>
      </trkpt>
      <trkpt lat="34.32314" lon="-117.05693">
        <ele>1807.93</ele>
      </trkpt>
      <trkpt lat="34.32298" lon="-117.0567">
        <ele>1808.64</ele>
      </trkpt>
      <trkpt lat="34.32274" lon="-117.05654">
        <ele>1808.74</ele>
      </trkpt>
      <trkpt lat="34.32236" lon="-117.05639">
        <ele>1807.99</ele>
      </trkpt>
      <trkpt lat="34.32217" lon="-117.05612">
        <ele>1808.39</ele>
      </trkpt>
      <trkpt lat="34.32185" lon="-117.05536">
        <ele>1809.11</ele>
      </trkpt>
      <trkpt lat="34.32162" lon="-117.05485">
        <ele>1810.0</ele>
      </trkpt>
      <trkpt lat="34.32142" lon="-117.05448">
        <ele>1810.21</ele>
      </trkpt>
      <trkpt lat="34.32118" lon="-117.0542">
        <ele>1811.0</ele>
      </trkpt>
      <trkpt lat="34.32061" lon="-117.05395">
        <ele>1810.2</ele>
      </trkpt>
      <trkpt lat="34.32038" lon="-117.0539">
        <ele>1810.0</ele>
      </trkpt>
      <trkpt lat="34.31983" lon="-117.05377">
        <ele>1813.28</ele>
      </trkpt>
      <trkpt lat="34.31961" lon="-117.05382">
        <ele>1814.74</ele>
      </trkpt>
      <trkpt lat="34.31961" lon="-117.05382">
        <ele>1814.74</ele>
      </trkpt>
      <trkpt lat="34.31956" lon="-117.05384">
        <ele>1814.53</ele>
      </trkpt>
      <trkpt lat="34.31913" lon="-117.05407">
        <ele>1815.44</ele>
      </trkpt>
      <trkpt lat="34.31866" lon="-117.05422">
        <ele>1814.7</ele>
      </trkpt>
      <trkpt lat="34.31851" lon="-117.05424">
        <ele>1815.0</ele>
      </trkpt>
      <trkpt lat="34.31824" lon="-117.0542">
        <ele>1815.0</ele>
      </trkpt>
      <trkpt lat="34.31807" lon="-117.05426">
        <ele>1814.99</ele>
      </trkpt>
      <trkpt lat="34.31775" lon="-117.05447">
        <ele>1815.02</ele>
      </trkpt>
      <trkpt lat="34.3176" lon="-117.05455">
        <ele>1814.86</ele>
      </trkpt>
      <trkpt lat="34.31738" lon="-117.05458">
        <ele>1813.54</ele>
      </trkpt>
      <trkpt lat="34.31722" lon="-117.05455">
        <ele>1813.84</ele>
      </trkpt>
      <trkpt lat="34.31709" lon="-117.05443">
        <ele>1813.73</ele>
      </trkpt>
      <trkpt lat="34.31703" lon="-117.05425">
        <ele>1814.93</ele>
      </trkpt>
      <trkpt lat="34.31702" lon="-117.05349">
        <ele>1819.0</ele>
      </trkpt>
      <trkpt lat="34.31703" lon="-117.05325">
        <ele>1819.99</ele>
      </trkpt>
      <trkpt lat="34.31708" lon="-117.05307">
        <ele>1821.46</ele>
      </trkpt>
      <trkpt lat="34.31723" lon="-117.05278">
        <ele>1823.08</ele>
      </trkpt>
      <trkpt lat="34.31738" lon="-117.0526">
        <ele>1824.7</ele>
      </trkpt>
      <trkpt lat="34.31766" lon="-117.05242">
        <ele>1827.73</ele>
      </trkpt>
      <trkpt lat="34.31772" lon="-117.05227">
        <ele>1828.38</ele>
      </trkpt>
      <trkpt lat="34.31771" lon="-117.05209">
        <ele>1828.27</ele>
      </trkpt>
      <trkpt lat="34.31765" lon="-117.05182">
        <ele>1828.21</ele>
      </trkpt>
      <trkpt lat="34.31748" lon="-117.05099">
        <ele>1836.18</ele>
      </trkpt>
      <trkpt lat="34.31728" lon="-117.05074">
        <ele>1836.64</ele>
      </trkpt>
      <trkpt lat="34.31697" lon="-117.05053">
        <ele>1836.55</ele>
      </trkpt>
      <trkpt lat="34.31692" lon="-117.05041">
        <ele>1836.74</ele>
      </trkpt>
      <trkpt lat="34.31693" lon="-117.05022">
        <ele>1838.37</ele>
      </trkpt>
      <trkpt lat="34.31703" lon="-117.04956">
        <ele>1845.54</ele>
      </trkpt>
      <trkpt lat="34.31699" lon="-117.04923">
        <ele>1848.46</ele>
      </trkpt>
      <trkpt lat="34.3168" lon="-117.04895">
        <ele>1851.68</ele>
      </trkpt>
      <trkpt lat="34.31657" lon="-117.0489">
        <ele>1851.75</ele>
      </trkpt>
      <trkpt lat="34.31624" lon="-117.04888">
        <ele>1849.58</ele>
      </trkpt>
      <trkpt lat="34.31607" lon="-117.0488">
        <ele>1848.5</ele>
      </trkpt>
      <trkpt lat="34.31597" lon="-117.04863">
        <ele>1849.65</ele>
      </trkpt>
      <trkpt lat="34.31587" lon="-117.04818">
        <ele>1857.36</ele>
      </trkpt>
      <trkpt lat="34.31576" lon="-117.04747">
        <ele>1865.97</ele>
      </trkpt>
      <trkpt lat="34.31569" lon="-117.04729">
        <ele>1869.84</ele>
      </trkpt>
      <trkpt lat="34.31543" lon="-117.04684">
        <ele>1871.85</ele>
      </trkpt>
      <trkpt lat="34.31522" lon="-117.0463">
        <ele>1875.3</ele>
      </trkpt>
      <trkpt lat="34.31517" lon="-117.04586">
        <ele>1881.38</ele>
      </trkpt>
      <trkpt lat="34.31512" lon="-117.04472">
        <ele>1890.21</ele>
      </trkpt>
      <trkpt lat="34.31523" lon="-117.04393">
        <ele>1894.45</ele>
      </trkpt>
      <trkpt lat="34.31545" lon="-117.04286">
        <ele>1903.44</ele>
      </trkpt>
      <trkpt lat="34.31578" lon="-117.04157">
        <ele>1909.23</ele>
      </trkpt>
      <trkpt lat="34.31584" lon="-117.04118">
        <ele>1909.2</ele>
      </trkpt>
      <trkpt lat="34.31595" lon="-117.04083">
        <ele>1914.49</ele>
      </trkpt>
      <trkpt lat="34.31615" lon="-117.04051">
        <ele>1919.26</ele>
      </trkpt>
      <trkpt lat="34.31619" lon="-117.04024">
        <ele>1920.96</ele>
      </trkpt>
      <trkpt lat="34.31617" lon="-117.03998">
        <ele>1924.63</ele>
      </trkpt>
      <trkpt lat="34.31604" lon="-117.03978">
        <ele>1925.39</ele>
      </trkpt>
      <trkpt lat="34.31574" lon="-117.03947">
        <ele>1931.71</ele>
      </trkpt>
      <trkpt lat="34.31562" lon="-117.0392">
        <ele>1933.48</ele>
      </trkpt>
      <trkpt lat="34.31555" lon="-117.03882">
        <ele>1935.56</ele>
      </trkpt>
      <trkpt lat="34.31551" lon="-117.03833">
        <ele>1940.52</ele>
      </trkpt>
      <trkpt lat="34.31557" lon="-117.03799">
        <ele>1943.47</ele>
      </trkpt>
      <trkpt lat="34.31581" lon="-117.03758">
        <ele>1950.78</ele>
      </trkpt>
      <trkpt lat="34.31595" lon="-117.03744">
        <ele>1950.74</ele>
      </trkpt>
      <trkpt lat="34.31596" lon="-117.03734">
        <ele>1950.9</ele>
      </trkpt>
      <trkpt lat="34.31591" lon="-117.03718">
        <ele>1952.55</ele>
      </trkpt>
      <trkpt lat="34.31576" lon="-117.0369">
        <ele>1955.0</ele>
      </trkpt>
      <trkpt lat="34.31573" lon="-117.03661">
        <ele>1956.61</ele>
      </trkpt>
      <trkpt lat="34.31571" lon="-117.03632">
        <ele>1958.25</ele>
      </trkpt>
      <trkpt lat="34.31577" lon="-117.03598">
        <ele>1959.5</ele>
      </trkpt>
      <trkpt lat="34.31605" lon="-117.0353">
        <ele>1958.08</ele>
      </trkpt>
      <trkpt lat="34.31624" lon="-117.03504">
        <ele>1953.82</ele>
      </trkpt>
      <trkpt lat="34.3164" lon="-117.03466">
        <ele>1952.43</ele>
      </trkpt>
      <trkpt lat="34.31661" lon="-117.03436">
        <ele>1951.17</ele>
      </trkpt>
      <trkpt lat="34.31682" lon="-117.03395">
        <ele>1951.12</ele>
      </trkpt>
      <trkpt lat="34.31688" lon="-117.03366">
        <ele>1957.11</ele>
      </trkpt>
      <trkpt lat="34.31697" lon="-117.03354">
        <ele>1959.26</ele>
      </trkpt>
      <trkpt lat="34.31737" lon="-117.03323">
        <ele>1960.57</ele>
      </trkpt>
      <trkpt lat="34.31762" lon="-117.03293">
        <ele>1961.76</ele>
      </trkpt>
      <trkpt lat="34.31775" lon="-117.03265">
        <ele>1961.6</ele>
      </trkpt>
      <trkpt lat="34.31777" lon="-117.03193">
        <ele>1970.48</ele>
      </trkpt>
      <trkpt lat="34.31778" lon="-117.0317">
        <ele>1973.19</ele>
      </trkpt>
      <trkpt lat="34.31786" lon="-117.03147">
        <ele>1975.82</ele>
      </trkpt>
      <trkpt lat="34.318" lon="-117.03133">
        <ele>1974.45</ele>
      </trkpt>
      <trkpt lat="34.31812" lon="-117.03125">
        <ele>1972.41</ele>
      </trkpt>
      <trkpt lat="34.31817" lon="-117.03113">
        <ele>1974.26</ele>
      </trkpt>
      <trkpt lat="34.3182" lon="-117.03101">
        <ele>1977.22</ele>
      </trkpt>
      <trkpt lat="34.31823" lon="-117.03073">
        <ele>1980.35</ele>
      </trkpt>
      <trkpt lat="34.31819" lon="-117.03057">
        <ele>1981.64</ele>
      </trkpt>
      <trkpt lat="34.31813" lon="-117.03037">
        <ele>1982.78</ele>
      </trkpt>
      <trkpt lat="34.31807" lon="-117.03015">
        <ele>1984.32</ele>
      </trkpt>
      <trkpt lat="34.31807" lon="-117.0299">
        <ele>1983.46</ele>
      </trkpt>
      <trkpt lat="34.31816" lon="-117.02938">
        <ele>1984.31</ele>
      </trkpt>
      <trkpt lat="34.31828" lon="-117.02897">
        <ele>1984.28</ele>
      </trkpt>
      <trkpt lat="34.31834" lon="-117.02876">
        <ele>1984.86</ele>
      </trkpt>
      <trkpt lat="34.31836" lon="-117.02853">
        <ele>1986.55</ele>
      </trkpt>
      <trkpt lat="34.31836" lon="-117.02835">
        <ele>1990.81</ele>
      </trkpt>
      <trkpt lat="34.31836" lon="-117.02835">
        <ele>1990.81</ele>
      </trkpt>
      <trkpt lat="34.31838" lon="-117.02793">
        <ele>1994.49</ele>
      </trkpt>
      <trkpt lat="34.31829" lon="-117.02734">
        <ele>1994.94</ele>
      </trkpt>
      <trkpt lat="34.31818" lon="-117.02691">
        <ele>1996.31</ele>
      </trkpt>
      <trkpt lat="34.31815" lon="-117.02667">
        <ele>1997.9</ele>
      </trkpt>
      <trkpt lat="34.31816" lon="-117.02646">
        <ele>1998.65</ele>
      </trkpt>
      <trkpt lat="34.31827" lon="-117.02572">
        <ele>2003.15</ele>
      </trkpt>
      <trkpt lat="34.3185" lon="-117.02485">
        <ele>2003.9</ele>
      </trkpt>
      <trkpt lat="34.31849" lon="-117.02461">
        <ele>2003.31</ele>
      </trkpt>
      <trkpt lat="34.31839" lon="-117.02434">
        <ele>2003.31</ele>
      </trkpt>
      <trkpt lat="34.31803" lon="-117.02349">
        <ele>2006.83</ele>
      </trkpt>
      <trkpt lat="34.3179" lon="-117.02295">
        <ele>2010.5</ele>
      </trkpt>
      <trkpt lat="34.31782" lon="-117.02236">
        <ele>2014.58</ele>
      </trkpt>
      <trkpt lat="34.31758" lon="-117.0218">
        <ele>2018.97</ele>
      </trkpt>
      <trkpt lat="34.31759" lon="-117.02159">
        <ele>2019.92</ele>
      </trkpt>
      <trkpt lat="34.31778" lon="-117.02114">
        <ele>2018.31</ele>
      </trkpt>
      <trkpt lat="34.31799" lon="-117.02067">
        <ele>2021.65</ele>
      </trkpt>
      <trkpt lat="34.31832" lon="-117.02019">
        <ele>2023.18</ele>
      </trkpt>
      <trkpt lat="34.3188" lon="-117.01968">
        <ele>2031.87</ele>
      </trkpt>
      <trkpt lat="34.3191" lon="-117.01942">
        <ele>2033.25</ele>
      </trkpt>
      <trkpt lat="34.31953" lon="-117.0188">
        <ele>2037.99</ele>
      </trkpt>
      <trkpt lat="34.31974" lon="-117.01856">
        <ele>2043.55</ele>
      </trkpt>
      <trkpt lat="34.31992" lon="-117.01848">
        <ele>2046.25</ele>
      </trkpt>
      <trkpt lat="34.32039" lon="-117.01851">
        <ele>2046.87</ele>
      </trkpt>
      <trkpt lat="34.32053" lon="-117.01845">
        <ele>2051.19</ele>
      </trkpt>
      <trkpt lat="34.32102" lon="-117.01794">
        <ele>2058.46</ele>
      </trkpt>
      <trkpt lat="34.32123" lon="-117.01779">
        <ele>2058.17</ele>
      </trkpt>
      <trkpt lat="34.32142" lon="-117.01759">
        <ele>2058.7</ele>
      </trkpt>
      <trkpt lat="34.32155" lon="-117.01735">
        <ele>2065.28</ele>
      </trkpt>
      <trkpt lat="34.32165" lon="-117.01707">
        <ele>2068.83</ele>
      </trkpt>
      <trkpt lat="34.32183" lon="-117.01682">
        <ele>2067.29</ele>
      </trkpt>
      <trkpt lat="34.32187" lon="-117.0166">
        <ele>2066.5</ele>
      </trkpt>
      <trkpt lat="34.32178" lon="-117.01635">
        <ele>2067.68</ele>
      </trkpt>
      <trkpt lat="34.32169" lon="-117.01616">
        <ele>2068.77</ele>
      </trkpt>
      <trkpt lat="34.32149" lon="-117.01575">
        <ele>2069.92</ele>
      </trkpt>
      <trkpt lat="34.32145" lon="-117.01553">
        <ele>2069.34</ele>
      </trkpt>
      <trkpt lat="34.32148" lon="-117.01529">
        <ele>2069.02</ele>
      </trkpt>
      <trkpt lat="34.32144" lon="-117.01511">
        <ele>2069.45</ele>
      </trkpt>
      <trkpt lat="34.32137" lon="-117.01499">
        <ele>2070.2</ele>
      </trkpt>
      <trkpt lat="34.32115" lon="-117.0148">
        <ele>2072.0</ele>
      </trkpt>
      <trkpt lat="34.32105" lon="-117.0147">
        <ele>2072.66</ele>
      </trkpt>
      <trkpt lat="34.32098" lon="-117.01441">
        <ele>2073.0</ele>
      </trkpt>
      <trkpt lat="34.32098" lon="-117.01413">
        <ele>2074.0</ele>
      </trkpt>
      <trkpt lat="34.32105" lon="-117.01366">
        <ele>2075.82</ele>
      </trkpt>
      <trkpt lat="34.32099" lon="-117.01317">
        <ele>2077.0</ele>
      </trkpt>
      <trkpt lat="34.32094" lon="-117.01276">
        <ele>2077.88</ele>
      </trkpt>
      <trkpt lat="34.32086" lon="-117.01235">
        <ele>2079.0</ele>
      </trkpt>
      <trkpt lat="34.32081" lon="-117.0122">
        <ele>2079.25</ele>
      </trkpt>
      <trkpt lat="34.3208" lon="-117.01216">
        <ele>2079.36</ele>
      </trkpt>
      <trkpt lat="34.3208" lon="-117.01216">
        <ele>2079.36</ele>
      </trkpt>
      <trkpt lat="34.32076" lon="-117.012">
        <ele>2080.0</ele>
      </trkpt>
      <trkpt lat="34.32073" lon="-117.0119">
        <ele>2080.06</ele>
      </trkpt>
      <trkpt lat="34.3206" lon="-117.01164">
        <ele>2081.0</ele>
      </trkpt>
      <trkpt lat="34.32046" lon="-117.01138">
        <ele>2082.0</ele>
      </trkpt>
      <trkpt lat="34.32035" lon="-117.01109">
        <ele>2083.0</ele>
      </trkpt>
      <trkpt lat="34.32017" lon="-117.01073">
        <ele>2084.1</ele>
      </trkpt>
      <trkpt lat="34.32" lon="-117.01049">
        <ele>2084.71</ele>
      </trkpt>
      <trkpt lat="34.31984" lon="-117.01029">
        <ele>2084.24</ele>
      </trkpt>
      <trkpt lat="34.31998" lon="-117.01">
        <ele>2085.78</ele>
      </trkpt>
      <trkpt lat="34.32037" lon="-117.0095">
        <ele>2087.0</ele>
      </trkpt>
      <trkpt lat="34.32083" lon="-117.00895">
        <ele>2088.0</ele>
      </trkpt>
      <trkpt lat="34.32128" lon="-117.00832">
        <ele>2090.14</ele>
      </trkpt>
      <trkpt lat="34.32142" lon="-117.00801">
        <ele>2091.49</ele>
      </trkpt>
      <trkpt lat="34.32222" lon="-117.00663">
        <ele>2099.4</ele>
      </trkpt>
      <trkpt lat="34.32256" lon="-117.00621">
        <ele>2101.93</ele>
      </trkpt>
      <trkpt lat="34.32274" lon="-117.006">
        <ele>2102.53</ele>
      </trkpt>
      <trkpt lat="34.32282" lon="-117.00571">
        <ele>2104.7</ele>
      </trkpt>
      <trkpt lat="34.32298" lon="-117.00529">
        <ele>2107.0</ele>
      </trkpt>
      <trkpt lat="34.32302" lon="-117.00514">
        <ele>2108.49</ele>
      </trkpt>
      <trkpt lat="34.32307" lon="-117.00493">
        <ele>2109.76</ele>
      </trkpt>
      <trkpt lat="34.32312" lon="-117.00437">
        <ele>2113.24</ele>
      </trkpt>
      <trkpt lat="34.32312" lon="-117.00396">
        <ele>2116.23</ele>
      </trkpt>
      <trkpt lat="34.32303" lon="-117.0036">
        <ele>2119.09</ele>
      </trkpt>
      <trkpt lat="34.3228" lon="-117.0032">
        <ele>2120.11</ele>
      </trkpt>
      <trkpt lat="34.32276" lon="-117.00298">
        <ele>2121.0</ele>
      </trkpt>
      <trkpt lat="34.32276" lon="-117.00298">
        <ele>2121.0</ele>
      </trkpt>
      <trkpt lat="34.32268" lon="-117.00238">
        <ele>2126.24</ele>
      </trkpt>
      <trkpt lat="34.32269" lon="-117.0021">
        <ele>2129.32</ele>
      </trkpt>
      <trkpt lat="34.32274" lon="-117.00196">
        <ele>2130.83</ele>
      </trkpt>
      <trkpt lat="34.3231" lon="-117.00124">
        <ele>2136.32</ele>
      </trkpt>
      <trkpt lat="34.3233" lon="-117.00085">
        <ele>2139.18</ele>
      </trkpt>
      <trkpt lat="34.32374" lon="-116.99987">
        <ele>2145.01</ele>
      </trkpt>
      <trkpt lat="34.32394" lon="-116.99959">
        <ele>2147.11</ele>
      </trkpt>
      <trkpt lat="34.32416" lon="-116.99916">
        <ele>2151.21</ele>
      </trkpt>
      <trkpt lat="34.32461" lon="-116.99846">
        <ele>2152.06</ele>
      </trkpt>
      <trkpt lat="34.32473" lon="-116.99803">
        <ele>2154.17</ele>
      </trkpt>
      <trkpt lat="34.32475" lon="-116.99776">
        <ele>2155.89</ele>
      </trkpt>
      <trkpt lat="34.32475" lon="-116.99749">
        <ele>2157.81</ele>
      </trkpt>
      <trkpt lat="34.32467" lon="-116.99677">
        <ele>2162.51</ele>
      </trkpt>
      <trkpt lat="34.32439" lon="-116.99604">
        <ele>2167.49</ele>
      </trkpt>
      <trkpt lat="34.32412" lon="-116.99511">
        <ele>2174.61</ele>
      </trkpt>
      <trkpt lat="34.32404" lon="-116.99445">
        <ele>2179.33</ele>
      </trkpt>
      <trkpt lat="34.32392" lon="-116.9941">
        <ele>2181.48</ele>
      </trkpt>
      <trkpt lat="34.32361" lon="-116.99357">
        <ele>2188.58</ele>
      </trkpt>
      <trkpt lat="34.32344" lon="-116.99305">
        <ele>2190.85</ele>
      </trkpt>
      <trkpt lat="34.32307" lon="-116.99232">
        <ele>2194.0</ele>
      </trkpt>
      <trkpt lat="34.32286" lon="-116.99199">
        <ele>2196.28</ele>
      </trkpt>
      <trkpt lat="34.32268" lon="-116.9916">
        <ele>2201.79</ele>
      </trkpt>
      <trkpt lat="34.3224" lon="-116.9912">
        <ele>2206.0</ele>
      </trkpt>
      <trkpt lat="34.32202" lon="-116.99044">
        <ele>2212.66</ele>
      </trkpt>
      <trkpt lat="34.32196" lon="-116.99014">
        <ele>2218.32</ele>
      </trkpt>
      <trkpt lat="34.322" lon="-116.9899">
        <ele>2218.35</ele>
      </trkpt>
      <trkpt lat="34.32205" lon="-116.98931">
        <ele>2221.84</ele>
      </trkpt>
      <trkpt lat="34.32202" lon="-116.98895">
        <ele>2227.8</ele>
      </trkpt>
      <trkpt lat="34.322" lon="-116.98883">
        <ele>2229.64</ele>
      </trkpt>
      <trkpt lat="34.32207" lon="-116.98873">
        <ele>2231.33</ele>
      </trkpt>
      <trkpt lat="34.3223" lon="-116.98861">
        <ele>2238.72</ele>
      </trkpt>
      <trkpt lat="34.32259" lon="-116.98859">
        <ele>2242.88</ele>
      </trkpt>
      <trkpt lat="34.32287" lon="-116.98861">
        <ele>2244.02</ele>
      </trkpt>
      <trkpt lat="34.32331" lon="-116.98837">
        <ele>2241.8</ele>
      </trkpt>
      <trkpt lat="34.32369" lon="-116.98787">
        <ele>2231.0</ele>
      </trkpt>
      <trkpt lat="34.32392" lon="-116.98738">
        <ele>2231.0</ele>
      </trkpt>
      <trkpt lat="34.32398" lon="-116.98714">
        <ele>2231.0</ele>
      </trkpt>
      <trkpt lat="34.3241" lon="-116.98699">
        <ele>2230.63</ele>
      </trkpt>
      <trkpt lat="34.32415" lon="-116.98668">
        <ele>2229.85</ele>
      </trkpt>
      <trkpt lat="34.3241" lon="-116.98632">
        <ele>2228.0</ele>
      </trkpt>
      <trkpt lat="34.32395" lon="-116.98582">
        <ele>2223.61</ele>
      </trkpt>
      <trkpt lat="34.32372" lon="-116.98531">
        <ele>2221.11</ele>
      </trkpt>
      <trkpt lat="34.32348" lon="-116.98497">
        <ele>2217.45</ele>
      </trkpt>
      <trkpt lat="34.32339" lon="-116.9841">
        <ele>2213.84</ele>
      </trkpt>
      <trkpt lat="34.32321" lon="-116.98383">
        <ele>2210.55</ele>
      </trkpt>
      <trkpt lat="34.32297" lon="-116.98316">
        <ele>2208.16</ele>
      </trkpt>
      <trkpt lat="34.32289" lon="-116.98281">
        <ele>2203.63</ele>
      </trkpt>
      <trkpt lat="34.32286" lon="-116.98258">
        <ele>2200.86</ele>
      </trkpt>
      <trkpt lat="34.32293" lon="-116.98248">
        <ele>2199.78</ele>
      </trkpt>
      <trkpt lat="34.3231" lon="-116.98244">
        <ele>2198.54</ele>
      </trkpt>
      <trkpt lat="34.3233" lon="-116.98253">
        <ele>2198.68</ele>
      </trkpt>
      <trkpt lat="34.32371" lon="-116.98284">
        <ele>2194.45</ele>
      </trkpt>
      <trkpt lat="34.3241" lon="-116.983">
        <ele>2187.92</ele>
      </trkpt>
      <trkpt lat="34.32434" lon="-116.98308">
        <ele>2187.92</ele>
      </trkpt>
      <trkpt lat="34.32452" lon="-116.98309">
        <ele>2187.32</ele>
      </trkpt>
      <trkpt lat="34.32455" lon="-116.98299">
        <ele>2187.34</ele>
      </trkpt>
      <trkpt lat="34.32449" lon="-116.98278">
        <ele>2187.96</ele>
      </trkpt>
      <trkpt lat="34.32448" lon="-116.9826">
        <ele>2188.12</ele>
      </trkpt>
      <trkpt lat="34.32453" lon="-116.98247">
        <ele>2190.17</ele>
      </trkpt>
      <trkpt lat="34.32461" lon="-116.98229">
        <ele>2192.27</ele>
      </trkpt>
      <trkpt lat="34.32447" lon="-116.98196">
        <ele>2197.94</ele>
      </trkpt>
      <trkpt lat="34.32436" lon="-116.98166">
        <ele>2201.25</ele>
      </trkpt>
      <trkpt lat="34.3243" lon="-116.98142">
        <ele>2203.54</ele>
      </trkpt>
      <trkpt lat="34.32424" lon="-116.98101">
        <ele>2209.77</ele>
      </trkpt>
      <trkpt lat="34.32418" lon="-116.98076">
        <ele>2212.08</ele>
      </trkpt>
      <trkpt lat="34.32395" lon="-116.98029">
        <ele>2212.53</ele>
      </trkpt>
      <trkpt lat="34.32394" lon="-116.98012">
        <ele>2211.68</ele>
      </trkpt>
      <trkpt lat="34.32402" lon="-116.98001">
        <ele>2211.52</ele>
      </trkpt>
      <trkpt lat="34.32454" lon="-116.97938">
        <ele>2206.3</ele>
      </trkpt>
      <trkpt lat="34.32486" lon="-116.9791">
        <ele>2205.0</ele>
      </trkpt>
      <trkpt lat="34.32528" lon="-116.9786">
        <ele>2204.88</ele>
      </trkpt>
      <trkpt lat="34.32553" lon="-116.97829">
        <ele>2204.72</ele>
      </trkpt>
      <trkpt lat="34.32568" lon="-116.97801">
        <ele>2205.0</ele>
      </trkpt>
      <trkpt lat="34.32597" lon="-116.9775">
        <ele>2209.0</ele>
      </trkpt>
      <trkpt lat="34.32623" lon="-116.97702">
        <ele>2214.18</ele>
      </trkpt>
      <trkpt lat="34.32636" lon="-116.97613">
        <ele>2219.0</ele>
      </trkpt>
      <trkpt lat="34.32643" lon="-116.97584">
        <ele>2221.44</ele>
      </trkpt>
      <trkpt lat="34.32643" lon="-116.97584">
        <ele>2221.44</ele>
      </trkpt>
      <trkpt lat="34.32652" lon="-116.97548">
        <ele>2226.4</ele>
      </trkpt>
      <trkpt lat="34.32681" lon="-116.97468">
        <ele>2231.25</ele>
      </trkpt>
      <trkpt lat="34.32683" lon="-116.97417">
        <ele>2234.73</ele>
      </trkpt>
      <trkpt lat="34.32678" lon="-116.9737">
        <ele>2241.04</ele>
      </trkpt>
      <trkpt lat="34.32658" lon="-116.97333">
        <ele>2242.0</ele>
      </trkpt>
      <trkpt lat="34.32651" lon="-116.97317">
        <ele>2241.07</ele>
      </trkpt>
      <trkpt lat="34.3265" lon="-116.97289">
        <ele>2240.2</ele>
      </trkpt>
      <trkpt lat="34.3264" lon="-116.97229">
        <ele>2236.24</ele>
      </trkpt>
      <trkpt lat="34.32639" lon="-116.97204">
        <ele>2235.02</ele>
      </trkpt>
      <trkpt lat="34.3265" lon="-116.97177">
        <ele>2234.52</ele>
      </trkpt>
      <trkpt lat="34.3269" lon="-116.97125">
        <ele>2235.28</ele>
      </trkpt>
      <trkpt lat="34.32704" lon="-116.97116">
        <ele>2238.05</ele>
      </trkpt>
      <trkpt lat="34.32708" lon="-116.971">
        <ele>2239.66</ele>
      </trkpt>
      <trkpt lat="34.32691" lon="-116.97035">
        <ele>2243.0</ele>
      </trkpt>
      <trkpt lat="34.3269" lon="-116.96974">
        <ele>2244.39</ele>
      </trkpt>
      <trkpt lat="34.32711" lon="-116.9693">
        <ele>2249.12</ele>
      </trkpt>
      <trkpt lat="34.32712" lon="-116.96921">
        <ele>2250.53</ele>
      </trkpt>
      <trkpt lat="34.32711" lon="-116.96912">
        <ele>2251.5</ele>
      </trkpt>
      <trkpt lat="34.32705" lon="-116.96898">
        <ele>2253.02</ele>
      </trkpt>
      <trkpt lat="34.32696" lon="-116.96893">
        <ele>2253.56</ele>
      </trkpt>
      <trkpt lat="34.32673" lon="-116.96887">
        <ele>2254.2</ele>
      </trkpt>
      <trkpt lat="34.32667" lon="-116.96882">
        <ele>2254.74</ele>
      </trkpt>
      <trkpt lat="34.32661" lon="-116.96874">
        <ele>2255.61</ele>
      </trkpt>
      <trkpt lat="34.32638" lon="-116.96827">
        <ele>2258.62</ele>
      </trkpt>
      <trkpt lat="34.32619" lon="-116.96789">
        <ele>2259.67</ele>
      </trkpt>
      <trkpt lat="34.32611" lon="-116.96771">
        <ele>2259.99</ele>
      </trkpt>
      <trkpt lat="34.3261" lon="-116.96749">
        <ele>2260.88</ele>
      </trkpt>
      <trkpt lat="34.32616" lon="-116.96708">
        <ele>2263.06</ele>
      </trkpt>
      <trkpt lat="34.32635" lon="-116.96674">
        <ele>2269.16</ele>
      </trkpt>
      <trkpt lat="34.32646" lon="-116.96644">
        <ele>2271.11</ele>
      </trkpt>
      <trkpt lat="34.32661" lon="-116.96498">
        <ele>2278.86</ele>
      </trkpt>
      <trkpt lat="34.32685" lon="-116.96432">
        <ele>2285.3</ele>
      </trkpt>
      <trkpt lat="34.32695" lon="-116.96375">
        <ele>2290.53</ele>
      </trkpt>
      <trkpt lat="34.327" lon="-116.96347">
        <ele>2292.72</ele>
      </trkpt>
      <trkpt lat="34.32716" lon="-116.96278">
        <ele>2300.98</ele>
      </trkpt>
      <trkpt lat="34.32714" lon="-116.96198">
        <ele>2303.68</ele>
      </trkpt>
      <trkpt lat="34.32706" lon="-116.96155">
        <ele>2308.32</ele>
      </trkpt>
      <trkpt lat="34.32706" lon="-116.96155">
        <ele>2308.32</ele>
      </trkpt>
      <trkpt lat="34.32705" lon="-116.96149">
        <ele>2309.04</ele>
      </trkpt>
      <trkpt lat="34.32708" lon="-116.96133">
        <ele>2311.1</ele>
      </trkpt>
      <trkpt lat="34.3275" lon="-116.96093">
        <ele>2314.0</ele>
      </trkpt>
      <trkpt lat="34.32778" lon="-116.96059">
        <ele>2313.6</ele>
      </trkpt>
      <trkpt lat="34.32787" lon="-116.96011">
        <ele>2312.83</ele>
      </trkpt>
      <trkpt lat="34.32784" lon="-116.9593">
        <ele>2315.7</ele>
      </trkpt>
      <trkpt lat="34.3275" lon="-116.95851">
        <ele>2316.0</ele>
      </trkpt>
      <trkpt lat="34.32714" lon="-116.95802">
        <ele>2322.82</ele>
      </trkpt>
      <trkpt lat="34.32683" lon="-116.95773">
        <ele>2327.0</ele>
      </trkpt>
      <trkpt lat="34.32659" lon="-116.95757">
        <ele>2328.2</ele>
      </trkpt>
      <trkpt lat="34.32648" lon="-116.95759">
        <ele>2328.04</ele>
      </trkpt>
      <trkpt lat="34.32634" lon="-116.95769">
        <ele>2328.0</ele>
      </trkpt>
      <trkpt lat="34.32623" lon="-116.9577">
        <ele>2327.89</ele>
      </trkpt>
      <trkpt lat="34.32607" lon="-116.95759">
        <ele>2327.56</ele>
      </trkpt>
      <trkpt lat="34.32589" lon="-116.95726">
        <ele>2323.2</ele>
      </trkpt>
      <trkpt lat="34.32555" lon="-116.95693">
        <ele>2316.05</ele>
      </trkpt>
      <trkpt lat="34.32503" lon="-116.95611">
        <ele>2315.0</ele>
      </trkpt>
      <trkpt lat="34.32465" lon="-116.95492">
        <ele>2303.22</ele>
      </trkpt>
      <trkpt lat="34.3242" lon="-116.95409">
        <ele>2301.36</ele>
      </trkpt>
      <trkpt lat="34.32372" lon="-116.95386">
        <ele>2295.46</ele>
      </trkpt>
      <trkpt lat="34.32308" lon="-116.95363">
        <ele>2291.8</ele>
      </trkpt>
      <trkpt lat="34.32273" lon="-116.95369">
        <ele>2291.0</ele>
      </trkpt>
      <trkpt lat="34.32248" lon="-116.95358">
        <ele>2289.19</ele>
      </trkpt>
      <trkpt lat="34.32118" lon="-116.95313">
        <ele>2279.0</ele>
      </trkpt>
      <trkpt lat="34.32055" lon="-116.95323">
        <ele>2279.0</ele>
      </trkpt>
      <trkpt lat="34.32029" lon="-116.95323">
        <ele>2279.0</ele>
      </trkpt>
      <trkpt lat="34.31992" lon="-116.95307">
        <ele>2272.25</ele>
      </trkpt>
      <trkpt lat="34.31974" lon="-116.95286">
        <ele>2270.38</ele>
      </trkpt>
      <trkpt lat="34.31968" lon="-116.95276">
        <ele>2268.98</ele>
      </trkpt>
      <trkpt lat="34.31971" lon="-116.95261">
        <ele>2268.98</ele>
      </trkpt>
      <trkpt lat="34.31995" lon="-116.95232">
        <ele>2272.33</ele>
      </trkpt>
      <trkpt lat="34.32005" lon="-116.95208">
        <ele>2278.65</ele>
      </trkpt>
      <trkpt lat="34.32008" lon="-116.95174">
        <ele>2280.86</ele>
      </trkpt>
      <trkpt lat="34.32017" lon="-116.95154">
        <ele>2281.47</ele>
      </trkpt>
      <trkpt lat="34.32052" lon="-116.95127">
        <ele>2282.77</ele>
      </trkpt>
      <trkpt lat="34.32064" lon="-116.95112">
        <ele>2283.91</ele>
      </trkpt>
      <trkpt lat="34.32067" lon="-116.95088">
        <ele>2288.35</ele>
      </trkpt>
      <trkpt lat="34.32049" lon="-116.95037">
        <ele>2291.0</ele>
      </trkpt>
      <trkpt lat="34.32038" lon="-116.95018">
        <ele>2291.06</ele>
      </trkpt>
      <trkpt lat="34.31994" lon="-116.94968">
        <ele>2296.26</ele>
      </trkpt>
      <trkpt lat="34.31985" lon="-116.94948">
        <ele>2300.23</ele>
      </trkpt>
      <trkpt lat="34.31984" lon="-116.94919">
        <ele>2303.75</ele>
      </trkpt>
      <trkpt lat="34.31975" lon="-116.94891">
        <ele>2304.3</ele>
      </trkpt>
      <trkpt lat="34.31976" lon="-116.94851">
        <ele>2304.41</ele>
      </trkpt>
      <trkpt lat="34.31985" lon="-116.94771">
        <ele>2304.1</ele>
      </trkpt>
      <trkpt lat="34.31985" lon="-116.94734">
        <ele>2302.55</ele>
      </trkpt>
      <trkpt lat="34.31993" lon="-116.94685">
        <ele>2300.24</ele>
      </trkpt>
      <trkpt lat="34.31994" lon="-116.9466">
        <ele>2299.0</ele>
      </trkpt>
      <trkpt lat="34.31983" lon="-116.94608">
        <ele>2295.56</ele>
      </trkpt>
      <trkpt lat="34.31971" lon="-116.94568">
        <ele>2293.87</ele>
      </trkpt>
      <trkpt lat="34.31976" lon="-116.94533">
        <ele>2289.9</ele>
      </trkpt>
      <trkpt lat="34.31974" lon="-116.94419">
        <ele>2282.84</ele>
      </trkpt>
      <trkpt lat="34.3198" lon="-116.94394">
        <ele>2280.86</ele>
      </trkpt>
      <trkpt lat="34.31996" lon="-116.94368">
        <ele>2277.6</ele>
      </trkpt>
      <trkpt lat="34.32005" lon="-116.94337">
        <ele>2275.13</ele>
      </trkpt>
      <trkpt lat="34.32017" lon="-116.94245">
        <ele>2273.42</ele>
      </trkpt>
      <trkpt lat="34.32032" lon="-116.94207">
        <ele>2268.74</ele>
      </trkpt>
      <trkpt lat="34.32033" lon="-116.9419">
        <ele>2267.66</ele>
      </trkpt>
      <trkpt lat="34.32035" lon="-116.94167">
        <ele>2266.47</ele>
      </trkpt>
      <trkpt lat="34.32025" lon="-116.94107">
        <ele>2264.47</ele>
      </trkpt>
      <trkpt lat="34.32017" lon="-116.9409">
        <ele>2264.05</ele>
      </trkpt>
      <trkpt lat="34.31998" lon="-116.94065">
        <ele>2264.47</ele>
      </trkpt>
      <trkpt lat="34.31979" lon="-116.94014">
        <ele>2262.05</ele>
      </trkpt>
      <trkpt lat="34.31955" lon="-116.93976">
        <ele>2262.13</ele>
      </trkpt>
      <trkpt lat="34.31949" lon="-116.93956">
        <ele>2260.76</ele>
      </trkpt>
      <trkpt lat="34.3194" lon="-116.93916">
        <ele>2256.93</ele>
      </trkpt>
      <trkpt lat="34.31929" lon="-116.93895">
        <ele>2254.66</ele>
      </trkpt>
      <trkpt lat="34.3188" lon="-116.93876">
        <ele>2253.61</ele>
      </trkpt>
      <trkpt lat="34.31835" lon="-116.93831">
        <ele>2252.57</ele>
      </trkpt>
      <trkpt lat="34.31819" lon="-116.93823">
        <ele>2253.43</ele>
      </trkpt>
      <trkpt lat="34.31745" lon="-116.93822">
        <ele>2264.99</ele>
      </trkpt>
      <trkpt lat="34.31721" lon="-116.93809">
        <ele>2264.88</ele>
      </trkpt>
      <trkpt lat="34.31709" lon="-116.9379">
        <ele>2262.88</ele>
      </trkpt>
      <trkpt lat="34.31699" lon="-116.93786">
        <ele>2263.85</ele>
      </trkpt>
      <trkpt lat="34.31685" lon="-116.93785">
        <ele>2265.8</ele>
      </trkpt>
      <trkpt lat="34.31677" lon="-116.93775">
        <ele>2265.58</ele>
      </trkpt>
      <trkpt lat="34.31656" lon="-116.93724">
        <ele>2267.99</ele>
      </trkpt>
      <trkpt lat="34.31646" lon="-116.9371">
        <ele>2270.0</ele>
      </trkpt>
      <trkpt lat="34.31606" lon="-116.93696">
        <ele>2265.06</ele>
      </trkpt>
      <trkpt lat="34.31571" lon="-116.93679">
        <ele>2255.67</ele>
      </trkpt>
      <trkpt lat="34.3154" lon="-116.93674">
        <ele>2252.11</ele>
      </trkpt>
      <trkpt lat="34.31525" lon="-116.93664">
        <ele>2249.22</ele>
      </trkpt>
      <trkpt lat="34.31507" lon="-116.93636">
        <ele>2245.86</ele>
      </trkpt>
      <trkpt lat="34.3149" lon="-116.93613">
        <ele>2243.02</ele>
      </trkpt>
      <trkpt lat="34.31456" lon="-116.93585">
        <ele>2237.36</ele>
      </trkpt>
      <trkpt lat="34.31442" lon="-116.93568">
        <ele>2234.69</ele>
      </trkpt>
      <trkpt lat="34.31442" lon="-116.93568">
        <ele>2234.69</ele>
      </trkpt>
      <trkpt lat="34.3143" lon="-116.93561">
        <ele>2233.36</ele>
      </trkpt>
      <trkpt lat="34.31379" lon="-116.93572">
        <ele>2228.66</ele>
      </trkpt>
      <trkpt lat="34.3136" lon="-116.93563">
        <ele>2225.9</ele>
      </trkpt>
      <trkpt lat="34.31354" lon="-116.93548">
        <ele>2226.82</ele>
      </trkpt>
      <trkpt lat="34.31361" lon="-116.93531">
        <ele>2227.02</ele>
      </trkpt>
      <trkpt lat="34.31404" lon="-116.93494">
        <ele>2219.13</ele>
      </trkpt>
      <trkpt lat="34.31418" lon="-116.93462">
        <ele>2219.0</ele>
      </trkpt>
      <trkpt lat="34.31432" lon="-116.93419">
        <ele>2218.25</ele>
      </trkpt>
      <trkpt lat="34.31433" lon="-116.93376">
        <ele>2216.61</ele>
      </trkpt>
      <trkpt lat="34.31445" lon="-116.93308">
        <ele>2208.32</ele>
      </trkpt>
      <trkpt lat="34.31446" lon="-116.93272">
        <ele>2206.17</ele>
      </trkpt>
      <trkpt lat="34.31436" lon="-116.93243">
        <ele>2204.31</ele>
      </trkpt>
      <trkpt lat="34.31418" lon="-116.93199">
        <ele>2201.57</ele>
      </trkpt>
      <trkpt lat="34.31365" lon="-116.93165">
        <ele>2200.08</ele>
      </trkpt>
      <trkpt lat="34.31352" lon="-116.93161">
        <ele>2199.62</ele>
      </trkpt>
      <trkpt lat="34.31333" lon="-116.93166">
        <ele>2198.97</ele>
      </trkpt>
      <trkpt lat="34.31313" lon="-116.93167">
        <ele>2197.96</ele>
      </trkpt>
      <trkpt lat="34.31292" lon="-116.93153">
        <ele>2198.0</ele>
      </trkpt>
      <trkpt lat="34.31275" lon="-116.93139">
        <ele>2198.0</ele>
      </trkpt>
      <trkpt lat="34.31265" lon="-116.93121">
        <ele>2198.58</ele>
      </trkpt>
      <trkpt lat="34.3126" lon="-116.93091">
        <ele>2199.24</ele>
      </trkpt>
      <trkpt lat="34.3126" lon="-116.93063">
        <ele>2200.26</ele>
      </trkpt>
      <trkpt lat="34.31264" lon="-116.9304">
        <ele>2201.35</ele>
      </trkpt>
      <trkpt lat="34.31262" lon="-116.93019">
        <ele>2202.0</ele>
      </trkpt>
      <trkpt lat="34.31211" lon="-116.92968">
        <ele>2201.0</ele>
      </trkpt>
      <trkpt lat="34.31197" lon="-116.92959">
        <ele>2201.0</ele>
      </trkpt>
      <trkpt lat="34.31162" lon="-116.92954">
        <ele>2200.48</ele>
      </trkpt>
      <trkpt lat="34.31113" lon="-116.92923">
        <ele>2201.0</ele>
      </trkpt>
      <trkpt lat="34.31049" lon="-116.9287">
        <ele>2202.0</ele>
      </trkpt>
      <trkpt lat="34.30989" lon="-116.92794">
        <ele>2201.86</ele>
      </trkpt>
      <trkpt lat="34.30976" lon="-116.92765">
        <ele>2202.41</ele>
      </trkpt>
      <trkpt lat="34.30961" lon="-116.92735">
        <ele>2202.92</ele>
      </trkpt>
      <trkpt lat="34.3094" lon="-116.92699">
        <ele>2204.03</ele>
      </trkpt>
      <trkpt lat="34.30927" lon="-116.92688">
        <ele>2203.81</ele>
      </trkpt>
      <trkpt lat="34.30905" lon="-116.92674">
        <ele>2202.95</ele>
      </trkpt>
      <trkpt lat="34.30891" lon="-116.92659">
        <ele>2202.23</ele>
      </trkpt>
      <trkpt lat="34.30884" lon="-116.92643">
        <ele>2202.47</ele>
      </trkpt>
      <trkpt lat="34.30847" lon="-116.92603">
        <ele>2200.0</ele>
      </trkpt>
      <trkpt lat="34.3084" lon="-116.92583">
        <ele>2199.72</ele>
      </trkpt>
      <trkpt lat="34.30831" lon="-116.92554">
        <ele>2198.75</ele>
      </trkpt>
      <trkpt lat="34.3082" lon="-116.92521">
        <ele>2198.56</ele>
      </trkpt>
      <trkpt lat="34.30815" lon="-116.92497">
        <ele>2199.34</ele>
      </trkpt>
      <trkpt lat="34.30809" lon="-116.92452">
        <ele>2201.0</ele>
      </trkpt>
      <trkpt lat="34.308" lon="-116.92419">
        <ele>2201.0</ele>
      </trkpt>
      <trkpt lat="34.30785" lon="-116.92383">
        <ele>2201.0</ele>
      </trkpt>
      <trkpt lat="34.30775" lon="-116.92352">
        <ele>2201.69</ele>
      </trkpt>
      <trkpt lat="34.30771" lon="-116.92339">
        <ele>2202.0</ele>
      </trkpt>
      <trkpt lat="34.30771" lon="-116.92339">
        <ele>2202.0</ele>
      </trkpt>
      <trkpt lat="34.30761" lon="-116.92303">
        <ele>2202.41</ele>
      </trkpt>
      <trkpt lat="34.30752" lon="-116.92251">
        <ele>2204.0</ele>
      </trkpt>
      <trkpt lat="34.30751" lon="-116.92217">
        <ele>2205.61</ele>
      </trkpt>
      <trkpt lat="34.30761" lon="-116.92181">
        <ele>2207.08</ele>
      </trkpt>
      <trkpt lat="34.30761" lon="-116.92115">
        <ele>2210.19</ele>
      </trkpt>
      <trkpt lat="34.30753" lon="-116.92071">
        <ele>2208.22</ele>
      </trkpt>
      <trkpt lat="34.30737" lon="-116.92018">
        <ele>2206.6</ele>
      </trkpt>
      <trkpt lat="34.30721" lon="-116.91965">
        <ele>2207.0</ele>
      </trkpt>
      <trkpt lat="34.30705" lon="-116.91911">
        <ele>2208.75</ele>
      </trkpt>
      <trkpt lat="34.30689" lon="-116.91858">
        <ele>2210.41</ele>
      </trkpt>
      <trkpt lat="34.30675" lon="-116.91808">
        <ele>2210.9</ele>
      </trkpt>
      <trkpt lat="34.30663" lon="-116.91772">
        <ele>2211.6</ele>
      </trkpt>
      <trkpt lat="34.30657" lon="-116.9175">
        <ele>2212.0</ele>
      </trkpt>
      <trkpt lat="34.30651" lon="-116.91686">
        <ele>2214.28</ele>
      </trkpt>
      <trkpt lat="34.30645" lon="-116.91622">
        <ele>2215.54</ele>
      </trkpt>
      <trkpt lat="34.30639" lon="-116.91558">
        <ele>2217.0</ele>
      </trkpt>
      <trkpt lat="34.30633" lon="-116.91494">
        <ele>2218.0</ele>
      </trkpt>
      <trkpt lat="34.30627" lon="-116.9143">
        <ele>2219.4</ele>
      </trkpt>
      <trkpt lat="34.30617" lon="-116.9133">
        <ele>2223.77</ele>
      </trkpt>
      <trkpt lat="34.30617" lon="-116.9133">
        <ele>2223.77</ele>
      </trkpt>
      <trkpt lat="34.30615" lon="-116.91312">
        <ele>2224.42</ele>
      </trkpt>
      <trkpt lat="34.30616" lon="-116.91286">
        <ele>2225.53</ele>
      </trkpt>
      <trkpt lat="34.30621" lon="-116.9126">
        <ele>2226.99</ele>
      </trkpt>
      <trkpt lat="34.3064" lon="-116.91217">
        <ele>2229.24</ele>
      </trkpt>
      <trkpt lat="34.30643" lon="-116.91204">
        <ele>2229.89</ele>
      </trkpt>
      <trkpt lat="34.30639" lon="-116.91192">
        <ele>2229.02</ele>
      </trkpt>
      <trkpt lat="34.30626" lon="-116.91164">
        <ele>2229.0</ele>
      </trkpt>
      <trkpt lat="34.30602" lon="-116.91104">
        <ele>2232.0</ele>
      </trkpt>
      <trkpt lat="34.30539" lon="-116.91033">
        <ele>2233.0</ele>
      </trkpt>
      <trkpt lat="34.30501" lon="-116.91004">
        <ele>2231.49</ele>
      </trkpt>
      <trkpt lat="34.3047" lon="-116.91002">
        <ele>2230.16</ele>
      </trkpt>
      <trkpt lat="34.30255" lon="-116.9101">
        <ele>2219.0</ele>
      </trkpt>
      <trkpt lat="34.30222" lon="-116.91011">
        <ele>2219.0</ele>
      </trkpt>
      <trkpt lat="34.30222" lon="-116.91011">
        <ele>2219.0</ele>
      </trkpt>
      <trkpt lat="34.30174" lon="-116.91012">
        <ele>2219.7</ele>
      </trkpt>
      <trkpt lat="34.30125" lon="-116.91012">
        <ele>2220.0</ele>
      </trkpt>
      <trkpt lat="34.30077" lon="-116.91013">
        <ele>2221.0</ele>
      </trkpt>
      <trkpt lat="34.30029" lon="-116.91013">
        <ele>2222.0</ele>
      </trkpt>
      <trkpt lat="34.2998" lon="-116.91013">
        <ele>2221.0</ele>
      </trkpt>
      <trkpt lat="34.29931" lon="-116.91013">
        <ele>2224.86</ele>
      </trkpt>
      <trkpt lat="34.29881" lon="-116.91013">
        <ele>2230.26</ele>
      </trkpt>
      <trkpt lat="34.29831" lon="-116.91013">
        <ele>2233.0</ele>
      </trkpt>
      <trkpt lat="34.29782" lon="-116.91013">
        <ele>2234.0</ele>
      </trkpt>
      <trkpt lat="34.29732" lon="-116.91013">
        <ele>2235.0</ele>
      </trkpt>
      <trkpt lat="34.29682" lon="-116.91013">
        <ele>2235.21</ele>
      </trkpt>
      <trkpt lat="34.29625" lon="-116.91016">
        <ele>2237.5</ele>
      </trkpt>
      <trkpt lat="34.29568" lon="-116.91018">
        <ele>2242.66</ele>
      </trkpt>
      <trkpt lat="34.2952" lon="-116.91031">
        <ele>2243.94</ele>
      </trkpt>
      <trkpt lat="34.29484" lon="-116.91052">
        <ele>2244.0</ele>
      </trkpt>
      <trkpt lat="34.29463" lon="-116.91065">
        <ele>2243.98</ele>
      </trkpt>
      <trkpt lat="34.29442" lon="-116.91081">
        <ele>2243.25</ele>
      </trkpt>
      <trkpt lat="34.29407" lon="-116.91118">
        <ele>2243.29</ele>
      </trkpt>
      <trkpt lat="34.29369" lon="-116.91157">
        <ele>2244.0</ele>
      </trkpt>
      <trkpt lat="34.2933" lon="-116.91194">
        <ele>2241.39</ele>
      </trkpt>
      <trkpt lat="34.29291" lon="-116.91233">
        <ele>2238.84</ele>
      </trkpt>
      <trkpt lat="34.29253" lon="-116.91272">
        <ele>2237.42</ele>
      </trkpt>
      <trkpt lat="34.29214" lon="-116.91311">
        <ele>2237.0</ele>
      </trkpt>
      <trkpt lat="34.29197" lon="-116.91328">
        <ele>2236.88</ele>
      </trkpt>
      <trkpt lat="34.29175" lon="-116.91351">
        <ele>2236.09</ele>
      </trkpt>
      <trkpt lat="34.29138" lon="-116.91388">
        <ele>2235.18</ele>
      </trkpt>
      <trkpt lat="34.29101" lon="-116.91424">
        <ele>2234.28</ele>
      </trkpt>
      <trkpt lat="34.29064" lon="-116.91461">
        <ele>2235.0</ele>
      </trkpt>
      <trkpt lat="34.29027" lon="-116.91497">
        <ele>2235.0</ele>
      </trkpt>
      <trkpt lat="34.29018" lon="-116.91506">
        <ele>2234.39</ele>
      </trkpt>
      <trkpt lat="34.29018" lon="-116.91506">
        <ele>2234.39</ele>
      </trkpt>
      <trkpt lat="34.29003" lon="-116.91521">
        <ele>2235.0</ele>
      </trkpt>
      <trkpt lat="34.28979" lon="-116.91543">
        <ele>2236.0</ele>
      </trkpt>
      <trkpt lat="34.28965" lon="-116.91551">
        <ele>2236.89</ele>
      </trkpt>
      <trkpt lat="34.28957" lon="-116.91555">
        <ele>2237.61</ele>
      </trkpt>
      <trkpt lat="34.28935" lon="-116.91563">
        <ele>2240.02</ele>
      </trkpt>
      <trkpt lat="34.28899" lon="-116.91571">
        <ele>2243.94</ele>
      </trkpt>
      <trkpt lat="34.28842" lon="-116.91579">
        <ele>2246.0</ele>
      </trkpt>
      <trkpt lat="34.28785" lon="-116.91591">
        <ele>2249.4</ele>
      </trkpt>
      <trkpt lat="34.28675" lon="-116.91628">
        <ele>2260.84</ele>
      </trkpt>
      <trkpt lat="34.28645" lon="-116.9164">
        <ele>2264.34</ele>
      </trkpt>
      <trkpt lat="34.28625" lon="-116.91655">
        <ele>2266.5</ele>
      </trkpt>
      <trkpt lat="34.28609" lon="-116.91671">
        <ele>2267.0</ele>
      </trkpt>
      <trkpt lat="34.28598" lon="-116.91688">
        <ele>2267.0</ele>
      </trkpt>
      <trkpt lat="34.28576" lon="-116.9172">
        <ele>2268.92</ele>
      </trkpt>
      <trkpt lat="34.28548" lon="-116.91762">
        <ele>2279.07</ele>
      </trkpt>
      <trkpt lat="34.2854" lon="-116.91775">
        <ele>2282.62</ele>
      </trkpt>
      <trkpt lat="34.2853" lon="-116.91783">
        <ele>2284.13</ele>
      </trkpt>
      <trkpt lat="34.28508" lon="-116.91785">
        <ele>2285.56</ele>
      </trkpt>
      <trkpt lat="34.28476" lon="-116.91789">
        <ele>2289.8</ele>
      </trkpt>
      <trkpt lat="34.28437" lon="-116.91794">
        <ele>2293.75</ele>
      </trkpt>
      <trkpt lat="34.2841" lon="-116.918">
        <ele>2294.08</ele>
      </trkpt>
      <trkpt lat="34.28399" lon="-116.91805">
        <ele>2294.88</ele>
      </trkpt>
      <trkpt lat="34.28389" lon="-116.91808">
        <ele>2297.51</ele>
      </trkpt>
      <trkpt lat="34.28379" lon="-116.9181">
        <ele>2299.72</ele>
      </trkpt>
      <trkpt lat="34.28369" lon="-116.91809">
        <ele>2303.3</ele>
      </trkpt>
      <trkpt lat="34.28363" lon="-116.91805">
        <ele>2304.47</ele>
      </trkpt>
      <trkpt lat="34.28361" lon="-116.91796">
        <ele>2302.99</ele>
      </trkpt>
      <trkpt lat="34.28363" lon="-116.91789">
        <ele>2301.8</ele>
      </trkpt>
      <trkpt lat="34.28366" lon="-116.91767">
        <ele>2300.47</ele>
      </trkpt>
      <trkpt lat="34.28369" lon="-116.91752">
        <ele>2300.82</ele>
      </trkpt>
      <trkpt lat="34.28369" lon="-116.9174">
        <ele>2301.0</ele>
      </trkpt>
      <trkpt lat="34.28367" lon="-116.9173">
        <ele>2301.1</ele>
      </trkpt>
      <trkpt lat="34.28364" lon="-116.91724">
        <ele>2301.25</ele>
      </trkpt>
      <trkpt lat="34.28357" lon="-116.91708">
        <ele>2300.11</ele>
      </trkpt>
      <trkpt lat="34.28348" lon="-116.91687">
        <ele>2299.17</ele>
      </trkpt>
      <trkpt lat="34.28344" lon="-116.91669">
        <ele>2298.42</ele>
      </trkpt>
      <trkpt lat="34.2834" lon="-116.91656">
        <ele>2297.55</ele>
      </trkpt>
      <trkpt lat="34.28335" lon="-116.91638">
        <ele>2296.54</ele>
      </trkpt>
      <trkpt lat="34.28331" lon="-116.91625">
        <ele>2295.5</ele>
      </trkpt>
      <trkpt lat="34.28321" lon="-116.91606">
        <ele>2291.78</ele>
      </trkpt>
      <trkpt lat="34.28306" lon="-116.91585">
        <ele>2288.1</ele>
      </trkpt>
      <trkpt lat="34.28297" lon="-116.91578">
        <ele>2285.23</ele>
      </trkpt>
      <trkpt lat="34.28293" lon="-116.9158">
        <ele>2284.29</ele>
      </trkpt>
      <trkpt lat="34.2829" lon="-116.91586">
        <ele>2283.64</ele>
      </trkpt>
      <trkpt lat="34.28289" lon="-116.91591">
        <ele>2283.42</ele>
      </trkpt>
      <trkpt lat="34.2829" lon="-116.9161">
        <ele>2283.64</ele>
      </trkpt>
      <trkpt lat="34.28294" lon="-116.91625">
        <ele>2284.26</ele>
      </trkpt>
      <trkpt lat="34.28293" lon="-116.91642">
        <ele>2282.93</ele>
      </trkpt>
      <trkpt lat="34.2829" lon="-116.91651">
        <ele>2281.65</ele>
      </trkpt>
      <trkpt lat="34.28284" lon="-116.91657">
        <ele>2279.7</ele>
      </trkpt>
      <trkpt lat="34.28278" lon="-116.9166">
        <ele>2279.02</ele>
      </trkpt>
      <trkpt lat="34.28269" lon="-116.91661">
        <ele>2278.05</ele>
      </trkpt>
      <trkpt lat="34.28261" lon="-116.91657">
        <ele>2277.96</ele>
      </trkpt>
      <trkpt lat="34.28251" lon="-116.91648">
        <ele>2276.09</ele>
      </trkpt>
      <trkpt lat="34.28246" lon="-116.91639">
        <ele>2274.15</ele>
      </trkpt>
      <trkpt lat="34.28244" lon="-116.91627">
        <ele>2273.35</ele>
      </trkpt>
      <trkpt lat="34.28242" lon="-116.91599">
        <ele>2272.87</ele>
      </trkpt>
      <trkpt lat="34.2824" lon="-116.91575">
        <ele>2270.02</ele>
      </trkpt>
      <trkpt lat="34.28236" lon="-116.91558">
        <ele>2267.75</ele>
      </trkpt>
      <trkpt lat="34.28229" lon="-116.91543">
        <ele>2266.0</ele>
      </trkpt>
      <trkpt lat="34.28223" lon="-116.91534">
        <ele>2266.0</ele>
      </trkpt>
      <trkpt lat="34.28215" lon="-116.91528">
        <ele>2266.0</ele>
      </trkpt>
      <trkpt lat="34.28206" lon="-116.91527">
        <ele>2266.13</ele>
      </trkpt>
      <trkpt lat="34.28201" lon="-116.91533">
        <ele>2266.13</ele>
      </trkpt>
      <trkpt lat="34.28198" lon="-116.9154">
        <ele>2266.0</ele>
      </trkpt>
      <trkpt lat="34.28197" lon="-116.91557">
        <ele>2266.0</ele>
      </trkpt>
      <trkpt lat="34.28194" lon="-116.91574">
        <ele>2266.0</ele>
      </trkpt>
      <trkpt lat="34.28187" lon="-116.91591">
        <ele>2266.0</ele>
      </trkpt>
      <trkpt lat="34.28177" lon="-116.91606">
        <ele>2266.0</ele>
      </trkpt>
      <trkpt lat="34.28157" lon="-116.91632">
        <ele>2266.03</ele>
      </trkpt>
      <trkpt lat="34.2813" lon="-116.91666">
        <ele>2265.07</ele>
      </trkpt>
      <trkpt lat="34.28118" lon="-116.91692">
        <ele>2263.59</ele>
      </trkpt>
      <trkpt lat="34.28111" lon="-116.91717">
        <ele>2260.13</ele>
      </trkpt>
      <trkpt lat="34.28107" lon="-116.91744">
        <ele>2256.96</ele>
      </trkpt>
      <trkpt lat="34.281" lon="-116.91769">
        <ele>2255.4</ele>
      </trkpt>
      <trkpt lat="34.28096" lon="-116.91779">
        <ele>2253.84</ele>
      </trkpt>
      <trkpt lat="34.28093" lon="-116.91791">
        <ele>2250.7</ele>
      </trkpt>
      <trkpt lat="34.28089" lon="-116.91816">
        <ele>2248.56</ele>
      </trkpt>
      <trkpt lat="34.28075" lon="-116.91855">
        <ele>2244.54</ele>
      </trkpt>
      <trkpt lat="34.28075" lon="-116.91855">
        <ele>2244.54</ele>
      </trkpt>
      <trkpt lat="34.28066" lon="-116.91873">
        <ele>2243.63</ele>
      </trkpt>
      <trkpt lat="34.28059" lon="-116.91884">
        <ele>2242.92</ele>
      </trkpt>
      <trkpt lat="34.28046" lon="-116.91901">
        <ele>2239.01</ele>
      </trkpt>
      <trkpt lat="34.28036" lon="-116.91914">
        <ele>2237.98</ele>
      </trkpt>
      <trkpt lat="34.28026" lon="-116.91932">
        <ele>2236.47</ele>
      </trkpt>
      <trkpt lat="34.28019" lon="-116.9194">
        <ele>2235.1</ele>
      </trkpt>
      <trkpt lat="34.28009" lon="-116.91951">
        <ele>2234.0</ele>
      </trkpt>
      <trkpt lat="34.28001" lon="-116.91962">
        <ele>2232.31</ele>
      </trkpt>
      <trkpt lat="34.27991" lon="-116.91974">
        <ele>2231.25</ele>
      </trkpt>
      <trkpt lat="34.27969" lon="-116.91998">
        <ele>2229.24</ele>
      </trkpt>
      <trkpt lat="34.27936" lon="-116.92022">
        <ele>2225.12</ele>
      </trkpt>
      <trkpt lat="34.27923" lon="-116.92029">
        <ele>2223.82</ele>
      </trkpt>
      <trkpt lat="34.27914" lon="-116.92033">
        <ele>2223.11</ele>
      </trkpt>
      <trkpt lat="34.27891" lon="-116.92036">
        <ele>2219.46</ele>
      </trkpt>
      <trkpt lat="34.27868" lon="-116.92051">
        <ele>2214.86</ele>
      </trkpt>
      <trkpt lat="34.27848" lon="-116.9208">
        <ele>2209.54</ele>
      </trkpt>
      <trkpt lat="34.27832" lon="-116.92111">
        <ele>2205.71</ele>
      </trkpt>
      <trkpt lat="34.27818" lon="-116.92137">
        <ele>2204.34</ele>
      </trkpt>
      <trkpt lat="34.27809" lon="-116.92149">
        <ele>2206.15</ele>
      </trkpt>
      <trkpt lat="34.278" lon="-116.92151">
        <ele>2206.8</ele>
      </trkpt>
      <trkpt lat="34.27794" lon="-116.92147">
        <ele>2205.6</ele>
      </trkpt>
      <trkpt lat="34.27786" lon="-116.92138">
        <ele>2201.7</ele>
      </trkpt>
      <trkpt lat="34.27777" lon="-116.92136">
        <ele>2200.27</ele>
      </trkpt>
      <trkpt lat="34.27764" lon="-116.92144">
        <ele>2200.41</ele>
      </trkpt>
      <trkpt lat="34.27757" lon="-116.9216">
        <ele>2202.83</ele>
      </trkpt>
      <trkpt lat="34.27754" lon="-116.92178">
        <ele>2204.96</ele>
      </trkpt>
      <trkpt lat="34.27748" lon="-116.92187">
        <ele>2204.02</ele>
      </trkpt>
      <trkpt lat="34.27739" lon="-116.92189">
        <ele>2203.9</ele>
      </trkpt>
      <trkpt lat="34.27708" lon="-116.92186">
        <ele>2205.8</ele>
      </trkpt>
      <trkpt lat="34.27675" lon="-116.92179">
        <ele>2206.0</ele>
      </trkpt>
      <trkpt lat="34.27644" lon="-116.92177">
        <ele>2203.95</ele>
      </trkpt>
      <trkpt lat="34.27621" lon="-116.92177">
        <ele>2201.42</ele>
      </trkpt>
      <trkpt lat="34.27606" lon="-116.92185">
        <ele>2202.39</ele>
      </trkpt>
      <trkpt lat="34.27587" lon="-116.92203">
        <ele>2204.56</ele>
      </trkpt>
      <trkpt lat="34.27572" lon="-116.92211">
        <ele>2203.92</ele>
      </trkpt>
      <trkpt lat="34.27553" lon="-116.92213">
        <ele>2200.46</ele>
      </trkpt>
      <trkpt lat="34.27537" lon="-116.92214">
        <ele>2197.22</ele>
      </trkpt>
      <trkpt lat="34.27519" lon="-116.92223">
        <ele>2195.27</ele>
      </trkpt>
      <trkpt lat="34.27491" lon="-116.92248">
        <ele>2190.65</ele>
      </trkpt>
      <trkpt lat="34.27451" lon="-116.92291">
        <ele>2182.97</ele>
      </trkpt>
      <trkpt lat="34.27437" lon="-116.92307">
        <ele>2185.19</ele>
      </trkpt>
      <trkpt lat="34.27433" lon="-116.92323">
        <ele>2186.65</ele>
      </trkpt>
      <trkpt lat="34.27435" lon="-116.9234">
        <ele>2186.98</ele>
      </trkpt>
      <trkpt lat="34.27442" lon="-116.9235">
        <ele>2186.94</ele>
      </trkpt>
      <trkpt lat="34.27449" lon="-116.92362">
        <ele>2185.81</ele>
      </trkpt>
      <trkpt lat="34.27451" lon="-116.92367">
        <ele>2184.73</ele>
      </trkpt>
      <trkpt lat="34.27454" lon="-116.92382">
        <ele>2183.05</ele>
      </trkpt>
      <trkpt lat="34.27448" lon="-116.92402">
        <ele>2183.96</ele>
      </trkpt>
      <trkpt lat="34.27437" lon="-116.92414">
        <ele>2183.91</ele>
      </trkpt>
      <trkpt lat="34.27424" lon="-116.92419">
        <ele>2181.99</ele>
      </trkpt>
      <trkpt lat="34.27399" lon="-116.92419">
        <ele>2176.76</ele>
      </trkpt>
      <trkpt lat="34.27363" lon="-116.92416">
        <ele>2173.8</ele>
      </trkpt>
      <trkpt lat="34.27336" lon="-116.92409">
        <ele>2171.93</ele>
      </trkpt>
      <trkpt lat="34.27292" lon="-116.9239">
        <ele>2166.48</ele>
      </trkpt>
      <trkpt lat="34.27279" lon="-116.92387">
        <ele>2165.18</ele>
      </trkpt>
      <trkpt lat="34.2727" lon="-116.92388">
        <ele>2164.02</ele>
      </trkpt>
      <trkpt lat="34.27254" lon="-116.92396">
        <ele>2164.17</ele>
      </trkpt>
      <trkpt lat="34.27242" lon="-116.92399">
        <ele>2160.9</ele>
      </trkpt>
      <trkpt lat="34.27225" lon="-116.92393">
        <ele>2160.99</ele>
      </trkpt>
      <trkpt lat="34.27203" lon="-116.92378">
        <ele>2164.65</ele>
      </trkpt>
      <trkpt lat="34.27186" lon="-116.92374">
        <ele>2163.78</ele>
      </trkpt>
      <trkpt lat="34.27165" lon="-116.9238">
        <ele>2162.28</ele>
      </trkpt>
      <trkpt lat="34.27153" lon="-116.92393">
        <ele>2158.49</ele>
      </trkpt>
      <trkpt lat="34.27124" lon="-116.92445">
        <ele>2157.88</ele>
      </trkpt>
      <trkpt lat="34.27117" lon="-116.9245">
        <ele>2157.84</ele>
      </trkpt>
      <trkpt lat="34.27111" lon="-116.92454">
        <ele>2158.03</ele>
      </trkpt>
      <trkpt lat="34.27103" lon="-116.92454">
        <ele>2158.06</ele>
      </trkpt>
      <trkpt lat="34.27085" lon="-116.92443">
        <ele>2153.69</ele>
      </trkpt>
      <trkpt lat="34.27072" lon="-116.92438">
        <ele>2151.32</ele>
      </trkpt>
      <trkpt lat="34.27057" lon="-116.92441">
        <ele>2148.94</ele>
      </trkpt>
      <trkpt lat="34.27036" lon="-116.92458">
        <ele>2150.06</ele>
      </trkpt>
      <trkpt lat="34.27018" lon="-116.92471">
        <ele>2150.2</ele>
      </trkpt>
      <trkpt lat="34.26999" lon="-116.92475">
        <ele>2151.51</ele>
      </trkpt>
      <trkpt lat="34.26959" lon="-116.92476">
        <ele>2154.61</ele>
      </trkpt>
      <trkpt lat="34.26924" lon="-116.9248">
        <ele>2154.88</ele>
      </trkpt>
      <trkpt lat="34.26911" lon="-116.92489">
        <ele>2157.59</ele>
      </trkpt>
      <trkpt lat="34.26891" lon="-116.92517">
        <ele>2154.97</ele>
      </trkpt>
      <trkpt lat="34.26874" lon="-116.92528">
        <ele>2154.54</ele>
      </trkpt>
      <trkpt lat="34.2684" lon="-116.92539">
        <ele>2155.64</ele>
      </trkpt>
      <trkpt lat="34.26808" lon="-116.9255">
        <ele>2153.06</ele>
      </trkpt>
      <trkpt lat="34.26759" lon="-116.92566">
        <ele>2147.39</ele>
      </trkpt>
      <trkpt lat="34.26736" lon="-116.92581">
        <ele>2143.28</ele>
      </trkpt>
      <trkpt lat="34.26716" lon="-116.92596">
        <ele>2140.78</ele>
      </trkpt>
      <trkpt lat="34.26674" lon="-116.92629">
        <ele>2137.05</ele>
      </trkpt>
      <trkpt lat="34.26616" lon="-116.92678">
        <ele>2127.96</ele>
      </trkpt>
      <trkpt lat="34.26595" lon="-116.92693">
        <ele>2124.31</ele>
      </trkpt>
      <trkpt lat="34.26581" lon="-116.92696">
        <ele>2123.62</ele>
      </trkpt>
      <trkpt lat="34.26565" lon="-116.92693">
        <ele>2123.33</ele>
      </trkpt>
      <trkpt lat="34.26557" lon="-116.92688">
        <ele>2123.8</ele>
      </trkpt>
      <trkpt lat="34.26548" lon="-116.92678">
        <ele>2123.96</ele>
      </trkpt>
      <trkpt lat="34.26542" lon="-116.9266">
        <ele>2121.89</ele>
      </trkpt>
      <trkpt lat="34.26543" lon="-116.92639">
        <ele>2118.31</ele>
      </trkpt>
      <trkpt lat="34.26554" lon="-116.92619">
        <ele>2115.34</ele>
      </trkpt>
      <trkpt lat="34.26575" lon="-116.92606">
        <ele>2117.64</ele>
      </trkpt>
      <trkpt lat="34.26598" lon="-116.92591">
        <ele>2119.16</ele>
      </trkpt>
      <trkpt lat="34.2661" lon="-116.92578">
        <ele>2118.84</ele>
      </trkpt>
      <trkpt lat="34.26613" lon="-116.9256">
        <ele>2115.2</ele>
      </trkpt>
      <trkpt lat="34.26609" lon="-116.9254">
        <ele>2116.81</ele>
      </trkpt>
      <trkpt lat="34.26596" lon="-116.92515">
        <ele>2124.51</ele>
      </trkpt>
      <trkpt lat="34.26582" lon="-116.92507">
        <ele>2125.55</ele>
      </trkpt>
      <trkpt lat="34.26564" lon="-116.92506">
        <ele>2123.62</ele>
      </trkpt>
      <trkpt lat="34.26522" lon="-116.92516">
        <ele>2109.82</ele>
      </trkpt>
      <trkpt lat="34.26486" lon="-116.92521">
        <ele>2108.95</ele>
      </trkpt>
      <trkpt lat="34.26466" lon="-116.92517">
        <ele>2108.66</ele>
      </trkpt>
      <trkpt lat="34.26451" lon="-116.92509">
        <ele>2107.73</ele>
      </trkpt>
      <trkpt lat="34.26442" lon="-116.92494">
        <ele>2106.21</ele>
      </trkpt>
      <trkpt lat="34.26435" lon="-116.92476">
        <ele>2103.94</ele>
      </trkpt>
      <trkpt lat="34.26429" lon="-116.92398">
        <ele>2096.99</ele>
      </trkpt>
      <trkpt lat="34.26429" lon="-116.92365">
        <ele>2093.22</ele>
      </trkpt>
      <trkpt lat="34.26437" lon="-116.9234">
        <ele>2091.06</ele>
      </trkpt>
      <trkpt lat="34.26453" lon="-116.92324">
        <ele>2090.91</ele>
      </trkpt>
      <trkpt lat="34.26468" lon="-116.92323">
        <ele>2092.25</ele>
      </trkpt>
      <trkpt lat="34.26488" lon="-116.92319">
        <ele>2091.67</ele>
      </trkpt>
      <trkpt lat="34.26502" lon="-116.92308">
        <ele>2090.96</ele>
      </trkpt>
      <trkpt lat="34.26527" lon="-116.92277">
        <ele>2089.75</ele>
      </trkpt>
      <trkpt lat="34.26531" lon="-116.92267">
        <ele>2088.02</ele>
      </trkpt>
      <trkpt lat="34.26533" lon="-116.92255">
        <ele>2085.84</ele>
      </trkpt>
      <trkpt lat="34.26534" lon="-116.92235">
        <ele>2083.38</ele>
      </trkpt>
      <trkpt lat="34.26535" lon="-116.9222">
        <ele>2083.8</ele>
      </trkpt>
      <trkpt lat="34.2654" lon="-116.92164">
        <ele>2087.32</ele>
      </trkpt>
      <trkpt lat="34.26538" lon="-116.92141">
        <ele>2088.0</ele>
      </trkpt>
      <trkpt lat="34.2653" lon="-116.92123">
        <ele>2087.24</ele>
      </trkpt>
      <trkpt lat="34.26512" lon="-116.92107">
        <ele>2086.3</ele>
      </trkpt>
      <trkpt lat="34.26499" lon="-116.92097">
        <ele>2085.42</ele>
      </trkpt>
    </trkseg>
  </trk>
</gpx>
