<?xml version="1.0"?>
<gpx xmlns="http://www.topografix.com/GPX/1/1" xmlns:xsi="http://www.w3.org/2001/XMLSchema-instance" version="1.1" creator="AllTrails.com" xsi:schemaLocation="http://www.topografix.com/GPX/1/1 http://www.topografix.com/GPX/1/1/gpx.xsd">
  <metadata>
    <name><![CDATA[Portola "P" Trail]]></name>
    <desc><![CDATA[]]></desc>
    <link href="http://www.alltrails.com">
      <text>AllTrails, LLC</text>
    </link>
    <bounds minlat="39.80026" minlon="-120.45552" maxlat="39.80712" maxlon="-120.43829"/>
  </metadata>
  <trk>
    <name><![CDATA[Portola "P" Trail]]></name>
    <src>AllTrails</src>
    <trkseg>
      <trkpt lat="39.80093" lon="-120.45552">
        <ele>1506.47</ele>
      </trkpt>
      <trkpt lat="39.80074" lon="-120.45479">
        <ele>1510.27</ele>
      </trkpt>
      <trkpt lat="39.80065" lon="-120.45461">
        <ele>1511.23</ele>
      </trkpt>
      <trkpt lat="39.8006" lon="-120.45453">
        <ele>1511.48</ele>
      </trkpt>
      <trkpt lat="39.80057" lon="-120.4545">
        <ele>1511.16</ele>
      </trkpt>
      <trkpt lat="39.80056" lon="-120.45447">
        <ele>1511.05</ele>
      </trkpt>
      <trkpt lat="39.80049" lon="-120.45436">
        <ele>1511.97</ele>
      </trkpt>
      <trkpt lat="39.80042" lon="-120.45424">
        <ele>1512.46</ele>
      </trkpt>
      <trkpt lat="39.80035" lon="-120.4541">
        <ele>1513.22</ele>
      </trkpt>
      <trkpt lat="39.80033" lon="-120.45405">
        <ele>1513.44</ele>
      </trkpt>
      <trkpt lat="39.80031" lon="-120.45396">
        <ele>1513.73</ele>
      </trkpt>
      <trkpt lat="39.80031" lon="-120.45391">
        <ele>1513.92</ele>
      </trkpt>
      <trkpt lat="39.8003" lon="-120.45387">
        <ele>1514.0</ele>
      </trkpt>
      <trkpt lat="39.8003" lon="-120.45378">
        <ele>1514.0</ele>
      </trkpt>
      <trkpt lat="39.80031" lon="-120.45374">
        <ele>1514.0</ele>
      </trkpt>
      <trkpt lat="39.80031" lon="-120.45366">
        <ele>1514.0</ele>
      </trkpt>
      <trkpt lat="39.80032" lon="-120.45361">
        <ele>1514.01</ele>
      </trkpt>
      <trkpt lat="39.80032" lon="-120.45354">
        <ele>1514.77</ele>
      </trkpt>
      <trkpt lat="39.80031" lon="-120.45348">
        <ele>1515.0</ele>
      </trkpt>
      <trkpt lat="39.80031" lon="-120.45343">
        <ele>1515.0</ele>
      </trkpt>
      <trkpt lat="39.8003" lon="-120.45337">
        <ele>1515.46</ele>
      </trkpt>
      <trkpt lat="39.8003" lon="-120.45331">
        <ele>1515.82</ele>
      </trkpt>
      <trkpt lat="39.80029" lon="-120.45326">
        <ele>1515.97</ele>
      </trkpt>
      <trkpt lat="39.80027" lon="-120.45317">
        <ele>1516.0</ele>
      </trkpt>
      <trkpt lat="39.80027" lon="-120.45304">
        <ele>1517.0</ele>
      </trkpt>
      <trkpt lat="39.80026" lon="-120.45299">
        <ele>1517.0</ele>
      </trkpt>
      <trkpt lat="39.80026" lon="-120.45287">
        <ele>1517.2</ele>
      </trkpt>
      <trkpt lat="39.80028" lon="-120.45277">
        <ele>1518.0</ele>
      </trkpt>
      <trkpt lat="39.80028" lon="-120.45273">
        <ele>1518.0</ele>
      </trkpt>
      <trkpt lat="39.80031" lon="-120.45258">
        <ele>1518.79</ele>
      </trkpt>
      <trkpt lat="39.80032" lon="-120.45248">
        <ele>1519.54</ele>
      </trkpt>
      <trkpt lat="39.80034" lon="-120.4524">
        <ele>1519.41</ele>
      </trkpt>
      <trkpt lat="39.80034" lon="-120.45234">
        <ele>1520.06</ele>
      </trkpt>
      <trkpt lat="39.80034" lon="-120.45229">
        <ele>1520.6</ele>
      </trkpt>
      <trkpt lat="39.80035" lon="-120.45224">
        <ele>1521.03</ele>
      </trkpt>
      <trkpt lat="39.80034" lon="-120.45219">
        <ele>1521.68</ele>
      </trkpt>
      <trkpt lat="39.80034" lon="-120.4521">
        <ele>1522.65</ele>
      </trkpt>
      <trkpt lat="39.80035" lon="-120.452">
        <ele>1523.62</ele>
      </trkpt>
      <trkpt lat="39.80036" lon="-120.45188">
        <ele>1524.81</ele>
      </trkpt>
      <trkpt lat="39.80036" lon="-120.45179">
        <ele>1525.71</ele>
      </trkpt>
      <trkpt lat="39.80038" lon="-120.45169">
        <ele>1525.87</ele>
      </trkpt>
      <trkpt lat="39.80039" lon="-120.45154">
        <ele>1526.16</ele>
      </trkpt>
      <trkpt lat="39.80041" lon="-120.45144">
        <ele>1526.57</ele>
      </trkpt>
      <trkpt lat="39.80041" lon="-120.45138">
        <ele>1526.63</ele>
      </trkpt>
      <trkpt lat="39.80042" lon="-120.45133">
        <ele>1526.76</ele>
      </trkpt>
      <trkpt lat="39.80042" lon="-120.45122">
        <ele>1527.37</ele>
      </trkpt>
      <trkpt lat="39.80042" lon="-120.45115">
        <ele>1527.73</ele>
      </trkpt>
      <trkpt lat="39.80042" lon="-120.45112">
        <ele>1527.88</ele>
      </trkpt>
      <trkpt lat="39.80042" lon="-120.45109">
        <ele>1528.05</ele>
      </trkpt>
      <trkpt lat="39.80041" lon="-120.45105">
        <ele>1528.43</ele>
      </trkpt>
      <trkpt lat="39.80039" lon="-120.45096">
        <ele>1529.29</ele>
      </trkpt>
      <trkpt lat="39.80035" lon="-120.45083">
        <ele>1531.48</ele>
      </trkpt>
      <trkpt lat="39.80032" lon="-120.45069">
        <ele>1533.64</ele>
      </trkpt>
      <trkpt lat="39.80032" lon="-120.45058">
        <ele>1534.82</ele>
      </trkpt>
      <trkpt lat="39.80032" lon="-120.45051">
        <ele>1535.36</ele>
      </trkpt>
      <trkpt lat="39.80033" lon="-120.45037">
        <ele>1536.31</ele>
      </trkpt>
      <trkpt lat="39.80032" lon="-120.45032">
        <ele>1536.88</ele>
      </trkpt>
      <trkpt lat="39.80032" lon="-120.45026">
        <ele>1537.28</ele>
      </trkpt>
      <trkpt lat="39.80032" lon="-120.45013">
        <ele>1538.09</ele>
      </trkpt>
      <trkpt lat="39.80032" lon="-120.45009">
        <ele>1538.12</ele>
      </trkpt>
      <trkpt lat="39.80032" lon="-120.45004">
        <ele>1538.66</ele>
      </trkpt>
      <trkpt lat="39.80031" lon="-120.44999">
        <ele>1539.3</ele>
      </trkpt>
      <trkpt lat="39.80031" lon="-120.44995">
        <ele>1539.3</ele>
      </trkpt>
      <trkpt lat="39.80031" lon="-120.44991">
        <ele>1539.3</ele>
      </trkpt>
      <trkpt lat="39.8003" lon="-120.44988">
        <ele>1539.82</ele>
      </trkpt>
      <trkpt lat="39.8003" lon="-120.44969">
        <ele>1540.78</ele>
      </trkpt>
      <trkpt lat="39.8003" lon="-120.44961">
        <ele>1541.33</ele>
      </trkpt>
      <trkpt lat="39.80029" lon="-120.44953">
        <ele>1541.8</ele>
      </trkpt>
      <trkpt lat="39.80029" lon="-120.44948">
        <ele>1542.27</ele>
      </trkpt>
      <trkpt lat="39.8003" lon="-120.4494">
        <ele>1542.76</ele>
      </trkpt>
      <trkpt lat="39.8003" lon="-120.44936">
        <ele>1543.19</ele>
      </trkpt>
      <trkpt lat="39.80032" lon="-120.44925">
        <ele>1543.14</ele>
      </trkpt>
      <trkpt lat="39.80034" lon="-120.4492">
        <ele>1542.87</ele>
      </trkpt>
      <trkpt lat="39.80039" lon="-120.44906">
        <ele>1542.52</ele>
      </trkpt>
      <trkpt lat="39.80042" lon="-120.44894">
        <ele>1542.84</ele>
      </trkpt>
      <trkpt lat="39.80046" lon="-120.44881">
        <ele>1542.92</ele>
      </trkpt>
      <trkpt lat="39.80049" lon="-120.44872">
        <ele>1543.24</ele>
      </trkpt>
      <trkpt lat="39.80053" lon="-120.44862">
        <ele>1543.46</ele>
      </trkpt>
      <trkpt lat="39.80055" lon="-120.44858">
        <ele>1543.46</ele>
      </trkpt>
      <trkpt lat="39.80058" lon="-120.4485">
        <ele>1543.94</ele>
      </trkpt>
      <trkpt lat="39.80062" lon="-120.44842">
        <ele>1544.39</ele>
      </trkpt>
      <trkpt lat="39.80065" lon="-120.44834">
        <ele>1544.89</ele>
      </trkpt>
      <trkpt lat="39.80069" lon="-120.44822">
        <ele>1545.32</ele>
      </trkpt>
      <trkpt lat="39.80073" lon="-120.44805">
        <ele>1546.29</ele>
      </trkpt>
      <trkpt lat="39.80074" lon="-120.44797">
        <ele>1546.94</ele>
      </trkpt>
      <trkpt lat="39.80073" lon="-120.44789">
        <ele>1547.23</ele>
      </trkpt>
      <trkpt lat="39.80073" lon="-120.44782">
        <ele>1547.78</ele>
      </trkpt>
      <trkpt lat="39.80072" lon="-120.44773">
        <ele>1548.45</ele>
      </trkpt>
      <trkpt lat="39.80072" lon="-120.44766">
        <ele>1548.45</ele>
      </trkpt>
      <trkpt lat="39.80072" lon="-120.44758">
        <ele>1548.58</ele>
      </trkpt>
      <trkpt lat="39.80074" lon="-120.44745">
        <ele>1549.02</ele>
      </trkpt>
      <trkpt lat="39.80073" lon="-120.44735">
        <ele>1549.23</ele>
      </trkpt>
      <trkpt lat="39.80073" lon="-120.44726">
        <ele>1549.82</ele>
      </trkpt>
      <trkpt lat="39.80074" lon="-120.44717">
        <ele>1550.02</ele>
      </trkpt>
      <trkpt lat="39.80076" lon="-120.44711">
        <ele>1549.38</ele>
      </trkpt>
      <trkpt lat="39.8008" lon="-120.44701">
        <ele>1548.27</ele>
      </trkpt>
      <trkpt lat="39.80084" lon="-120.44682">
        <ele>1548.13</ele>
      </trkpt>
      <trkpt lat="39.80086" lon="-120.44676">
        <ele>1548.13</ele>
      </trkpt>
      <trkpt lat="39.80088" lon="-120.44671">
        <ele>1548.02</ele>
      </trkpt>
      <trkpt lat="39.80089" lon="-120.44668">
        <ele>1548.02</ele>
      </trkpt>
      <trkpt lat="39.80089" lon="-120.44665">
        <ele>1548.16</ele>
      </trkpt>
      <trkpt lat="39.8009" lon="-120.44664">
        <ele>1547.84</ele>
      </trkpt>
      <trkpt lat="39.8009" lon="-120.44663">
        <ele>1547.84</ele>
      </trkpt>
      <trkpt lat="39.8009" lon="-120.44662">
        <ele>1547.84</ele>
      </trkpt>
      <trkpt lat="39.8009" lon="-120.44659">
        <ele>1547.84</ele>
      </trkpt>
      <trkpt lat="39.80091" lon="-120.44655">
        <ele>1547.78</ele>
      </trkpt>
      <trkpt lat="39.80093" lon="-120.44648">
        <ele>1547.93</ele>
      </trkpt>
      <trkpt lat="39.80095" lon="-120.44642">
        <ele>1548.14</ele>
      </trkpt>
      <trkpt lat="39.80096" lon="-120.44634">
        <ele>1548.79</ele>
      </trkpt>
      <trkpt lat="39.80099" lon="-120.44627">
        <ele>1548.79</ele>
      </trkpt>
      <trkpt lat="39.80104" lon="-120.44616">
        <ele>1548.6</ele>
      </trkpt>
      <trkpt lat="39.80109" lon="-120.44603">
        <ele>1549.33</ele>
      </trkpt>
      <trkpt lat="39.80116" lon="-120.44574">
        <ele>1551.42</ele>
      </trkpt>
      <trkpt lat="39.80117" lon="-120.44564">
        <ele>1552.18</ele>
      </trkpt>
      <trkpt lat="39.80118" lon="-120.44559">
        <ele>1552.4</ele>
      </trkpt>
      <trkpt lat="39.80119" lon="-120.44557">
        <ele>1552.29</ele>
      </trkpt>
      <trkpt lat="39.80119" lon="-120.44555">
        <ele>1552.5</ele>
      </trkpt>
      <trkpt lat="39.80119" lon="-120.44554">
        <ele>1552.61</ele>
      </trkpt>
      <trkpt lat="39.80119" lon="-120.44552">
        <ele>1552.83</ele>
      </trkpt>
      <trkpt lat="39.8012" lon="-120.44548">
        <ele>1552.94</ele>
      </trkpt>
      <trkpt lat="39.8012" lon="-120.44542">
        <ele>1553.14</ele>
      </trkpt>
      <trkpt lat="39.80121" lon="-120.44535">
        <ele>1553.14</ele>
      </trkpt>
      <trkpt lat="39.80126" lon="-120.44516">
        <ele>1553.45</ele>
      </trkpt>
      <trkpt lat="39.80126" lon="-120.4451">
        <ele>1554.1</ele>
      </trkpt>
      <trkpt lat="39.80127" lon="-120.44507">
        <ele>1554.1</ele>
      </trkpt>
      <trkpt lat="39.80127" lon="-120.44504">
        <ele>1554.42</ele>
      </trkpt>
      <trkpt lat="39.80128" lon="-120.445">
        <ele>1554.53</ele>
      </trkpt>
      <trkpt lat="39.80128" lon="-120.44491">
        <ele>1554.7</ele>
      </trkpt>
      <trkpt lat="39.80127" lon="-120.44488">
        <ele>1555.43</ele>
      </trkpt>
      <trkpt lat="39.80128" lon="-120.44482">
        <ele>1555.65</ele>
      </trkpt>
      <trkpt lat="39.80129" lon="-120.44478">
        <ele>1555.65</ele>
      </trkpt>
      <trkpt lat="39.80129" lon="-120.44475">
        <ele>1555.97</ele>
      </trkpt>
      <trkpt lat="39.8013" lon="-120.4447">
        <ele>1555.96</ele>
      </trkpt>
      <trkpt lat="39.80133" lon="-120.44461">
        <ele>1555.77</ele>
      </trkpt>
      <trkpt lat="39.80134" lon="-120.4445">
        <ele>1556.46</ele>
      </trkpt>
      <trkpt lat="39.80135" lon="-120.44443">
        <ele>1556.91</ele>
      </trkpt>
      <trkpt lat="39.80135" lon="-120.44436">
        <ele>1557.22</ele>
      </trkpt>
      <trkpt lat="39.80135" lon="-120.44431">
        <ele>1557.45</ele>
      </trkpt>
      <trkpt lat="39.80134" lon="-120.44426">
        <ele>1558.11</ele>
      </trkpt>
      <trkpt lat="39.80134" lon="-120.44421">
        <ele>1558.92</ele>
      </trkpt>
      <trkpt lat="39.80132" lon="-120.44412">
        <ele>1561.22</ele>
      </trkpt>
      <trkpt lat="39.80133" lon="-120.444">
        <ele>1561.69</ele>
      </trkpt>
      <trkpt lat="39.80134" lon="-120.44397">
        <ele>1561.29</ele>
      </trkpt>
      <trkpt lat="39.80134" lon="-120.44395">
        <ele>1561.51</ele>
      </trkpt>
      <trkpt lat="39.80136" lon="-120.44389">
        <ele>1560.86</ele>
      </trkpt>
      <trkpt lat="39.80136" lon="-120.44385">
        <ele>1561.58</ele>
      </trkpt>
      <trkpt lat="39.80137" lon="-120.44381">
        <ele>1561.75</ele>
      </trkpt>
      <trkpt lat="39.80137" lon="-120.44377">
        <ele>1562.25</ele>
      </trkpt>
      <trkpt lat="39.80138" lon="-120.44372">
        <ele>1562.22</ele>
      </trkpt>
      <trkpt lat="39.80138" lon="-120.44369">
        <ele>1562.53</ele>
      </trkpt>
      <trkpt lat="39.80139" lon="-120.44363">
        <ele>1562.75</ele>
      </trkpt>
      <trkpt lat="39.80147" lon="-120.44343">
        <ele>1560.45</ele>
      </trkpt>
      <trkpt lat="39.80151" lon="-120.44331">
        <ele>1560.69</ele>
      </trkpt>
      <trkpt lat="39.80152" lon="-120.44326">
        <ele>1560.58</ele>
      </trkpt>
      <trkpt lat="39.80153" lon="-120.44321">
        <ele>1560.81</ele>
      </trkpt>
      <trkpt lat="39.80153" lon="-120.44315">
        <ele>1561.46</ele>
      </trkpt>
      <trkpt lat="39.80156" lon="-120.44303">
        <ele>1561.35</ele>
      </trkpt>
      <trkpt lat="39.80155" lon="-120.44299">
        <ele>1561.7</ele>
      </trkpt>
      <trkpt lat="39.80156" lon="-120.44288">
        <ele>1562.35</ele>
      </trkpt>
      <trkpt lat="39.80155" lon="-120.44284">
        <ele>1563.11</ele>
      </trkpt>
      <trkpt lat="39.80156" lon="-120.44282">
        <ele>1563.0</ele>
      </trkpt>
      <trkpt lat="39.80155" lon="-120.44279">
        <ele>1563.65</ele>
      </trkpt>
      <trkpt lat="39.80155" lon="-120.44274">
        <ele>1564.19</ele>
      </trkpt>
      <trkpt lat="39.80154" lon="-120.4427">
        <ele>1564.94</ele>
      </trkpt>
      <trkpt lat="39.80154" lon="-120.44267">
        <ele>1565.1</ele>
      </trkpt>
      <trkpt lat="39.80153" lon="-120.44264">
        <ele>1565.43</ele>
      </trkpt>
      <trkpt lat="39.80153" lon="-120.4426">
        <ele>1565.43</ele>
      </trkpt>
      <trkpt lat="39.80152" lon="-120.44257">
        <ele>1566.0</ele>
      </trkpt>
      <trkpt lat="39.80152" lon="-120.44254">
        <ele>1566.32</ele>
      </trkpt>
      <trkpt lat="39.80149" lon="-120.44234">
        <ele>1568.72</ele>
      </trkpt>
      <trkpt lat="39.80147" lon="-120.4422">
        <ele>1570.37</ele>
      </trkpt>
      <trkpt lat="39.80146" lon="-120.4421">
        <ele>1570.7</ele>
      </trkpt>
      <trkpt lat="39.80146" lon="-120.44205">
        <ele>1570.7</ele>
      </trkpt>
      <trkpt lat="39.80145" lon="-120.44199">
        <ele>1571.02</ele>
      </trkpt>
      <trkpt lat="39.80143" lon="-120.44191">
        <ele>1571.67</ele>
      </trkpt>
      <trkpt lat="39.80142" lon="-120.44183">
        <ele>1571.99</ele>
      </trkpt>
      <trkpt lat="39.80137" lon="-120.44164">
        <ele>1573.32</ele>
      </trkpt>
      <trkpt lat="39.80133" lon="-120.44137">
        <ele>1573.78</ele>
      </trkpt>
      <trkpt lat="39.80128" lon="-120.44123">
        <ele>1573.81</ele>
      </trkpt>
      <trkpt lat="39.80123" lon="-120.44113">
        <ele>1575.15</ele>
      </trkpt>
      <trkpt lat="39.80119" lon="-120.44106">
        <ele>1575.97</ele>
      </trkpt>
      <trkpt lat="39.80116" lon="-120.44099">
        <ele>1576.74</ele>
      </trkpt>
      <trkpt lat="39.80112" lon="-120.44088">
        <ele>1577.71</ele>
      </trkpt>
      <trkpt lat="39.80107" lon="-120.44074">
        <ele>1579.78</ele>
      </trkpt>
      <trkpt lat="39.80107" lon="-120.44067">
        <ele>1579.78</ele>
      </trkpt>
      <trkpt lat="39.80107" lon="-120.44064">
        <ele>1579.74</ele>
      </trkpt>
      <trkpt lat="39.80107" lon="-120.44055">
        <ele>1579.37</ele>
      </trkpt>
      <trkpt lat="39.80108" lon="-120.44051">
        <ele>1579.33</ele>
      </trkpt>
      <trkpt lat="39.80109" lon="-120.44042">
        <ele>1579.46</ele>
      </trkpt>
      <trkpt lat="39.80111" lon="-120.44036">
        <ele>1579.13</ele>
      </trkpt>
      <trkpt lat="39.80113" lon="-120.44032">
        <ele>1579.14</ele>
      </trkpt>
      <trkpt lat="39.80116" lon="-120.44031">
        <ele>1578.6</ele>
      </trkpt>
      <trkpt lat="39.80118" lon="-120.4403">
        <ele>1578.27</ele>
      </trkpt>
      <trkpt lat="39.80123" lon="-120.44032">
        <ele>1577.67</ele>
      </trkpt>
      <trkpt lat="39.80132" lon="-120.44039">
        <ele>1578.3</ele>
      </trkpt>
      <trkpt lat="39.80136" lon="-120.44042">
        <ele>1578.84</ele>
      </trkpt>
      <trkpt lat="39.8014" lon="-120.44043">
        <ele>1579.72</ele>
      </trkpt>
      <trkpt lat="39.80143" lon="-120.44043">
        <ele>1580.69</ele>
      </trkpt>
      <trkpt lat="39.80148" lon="-120.44043">
        <ele>1582.31</ele>
      </trkpt>
      <trkpt lat="39.80154" lon="-120.44042">
        <ele>1584.07</ele>
      </trkpt>
      <trkpt lat="39.80172" lon="-120.44036">
        <ele>1588.15</ele>
      </trkpt>
      <trkpt lat="39.80185" lon="-120.44031">
        <ele>1590.96</ele>
      </trkpt>
      <trkpt lat="39.802" lon="-120.44024">
        <ele>1594.61</ele>
      </trkpt>
      <trkpt lat="39.80205" lon="-120.4402">
        <ele>1596.12</ele>
      </trkpt>
      <trkpt lat="39.80215" lon="-120.44013">
        <ele>1599.04</ele>
      </trkpt>
      <trkpt lat="39.80222" lon="-120.44008">
        <ele>1601.09</ele>
      </trkpt>
      <trkpt lat="39.80227" lon="-120.44005">
        <ele>1603.01</ele>
      </trkpt>
      <trkpt lat="39.80233" lon="-120.44001">
        <ele>1605.22</ele>
      </trkpt>
      <trkpt lat="39.8024" lon="-120.43997">
        <ele>1607.16</ele>
      </trkpt>
      <trkpt lat="39.80246" lon="-120.43994">
        <ele>1608.78</ele>
      </trkpt>
      <trkpt lat="39.80257" lon="-120.43985">
        <ele>1612.6</ele>
      </trkpt>
      <trkpt lat="39.80259" lon="-120.43981">
        <ele>1613.97</ele>
      </trkpt>
      <trkpt lat="39.80273" lon="-120.43972">
        <ele>1618.48</ele>
      </trkpt>
      <trkpt lat="39.8028" lon="-120.4397">
        <ele>1620.72</ele>
      </trkpt>
      <trkpt lat="39.80292" lon="-120.43966">
        <ele>1623.21</ele>
      </trkpt>
      <trkpt lat="39.80301" lon="-120.43963">
        <ele>1624.5</ele>
      </trkpt>
      <trkpt lat="39.8031" lon="-120.4396">
        <ele>1625.8</ele>
      </trkpt>
      <trkpt lat="39.80313" lon="-120.43958">
        <ele>1626.34</ele>
      </trkpt>
      <trkpt lat="39.80317" lon="-120.43955">
        <ele>1627.06</ele>
      </trkpt>
      <trkpt lat="39.80319" lon="-120.43952">
        <ele>1627.64</ele>
      </trkpt>
      <trkpt lat="39.80325" lon="-120.43943">
        <ele>1629.26</ele>
      </trkpt>
      <trkpt lat="39.8033" lon="-120.43936">
        <ele>1630.55</ele>
      </trkpt>
      <trkpt lat="39.80336" lon="-120.43931">
        <ele>1632.06</ele>
      </trkpt>
      <trkpt lat="39.80342" lon="-120.43927">
        <ele>1632.88</ele>
      </trkpt>
      <trkpt lat="39.80344" lon="-120.43924">
        <ele>1633.57</ele>
      </trkpt>
      <trkpt lat="39.80346" lon="-120.43921">
        <ele>1634.43</ele>
      </trkpt>
      <trkpt lat="39.80347" lon="-120.43918">
        <ele>1635.19</ele>
      </trkpt>
      <trkpt lat="39.80347" lon="-120.43908">
        <ele>1636.41</ele>
      </trkpt>
      <trkpt lat="39.80349" lon="-120.43902">
        <ele>1636.69</ele>
      </trkpt>
      <trkpt lat="39.80354" lon="-120.43896">
        <ele>1637.23</ele>
      </trkpt>
      <trkpt lat="39.8036" lon="-120.4389">
        <ele>1637.88</ele>
      </trkpt>
      <trkpt lat="39.80366" lon="-120.43885">
        <ele>1638.53</ele>
      </trkpt>
      <trkpt lat="39.80369" lon="-120.43879">
        <ele>1638.78</ele>
      </trkpt>
      <trkpt lat="39.80372" lon="-120.43873">
        <ele>1638.46</ele>
      </trkpt>
      <trkpt lat="39.80375" lon="-120.43867">
        <ele>1638.5</ele>
      </trkpt>
      <trkpt lat="39.80378" lon="-120.43864">
        <ele>1638.82</ele>
      </trkpt>
      <trkpt lat="39.80382" lon="-120.43862">
        <ele>1639.51</ele>
      </trkpt>
      <trkpt lat="39.80408" lon="-120.43856">
        <ele>1645.13</ele>
      </trkpt>
      <trkpt lat="39.80413" lon="-120.43856">
        <ele>1646.21</ele>
      </trkpt>
      <trkpt lat="39.80421" lon="-120.43856">
        <ele>1647.47</ele>
      </trkpt>
      <trkpt lat="39.80424" lon="-120.43857">
        <ele>1647.79</ele>
      </trkpt>
      <trkpt lat="39.80435" lon="-120.43857">
        <ele>1649.96</ele>
      </trkpt>
      <trkpt lat="39.80443" lon="-120.43856">
        <ele>1650.38</ele>
      </trkpt>
      <trkpt lat="39.80448" lon="-120.43855">
        <ele>1650.98</ele>
      </trkpt>
      <trkpt lat="39.80451" lon="-120.43856">
        <ele>1651.55</ele>
      </trkpt>
      <trkpt lat="39.80456" lon="-120.43859">
        <ele>1652.69</ele>
      </trkpt>
      <trkpt lat="39.80464" lon="-120.43864">
        <ele>1655.26</ele>
      </trkpt>
      <trkpt lat="39.80475" lon="-120.43871">
        <ele>1658.55</ele>
      </trkpt>
      <trkpt lat="39.80478" lon="-120.43874">
        <ele>1659.1</ele>
      </trkpt>
      <trkpt lat="39.80481" lon="-120.43876">
        <ele>1659.86</ele>
      </trkpt>
      <trkpt lat="39.80483" lon="-120.43876">
        <ele>1660.23</ele>
      </trkpt>
      <trkpt lat="39.80487" lon="-120.43874">
        <ele>1660.96</ele>
      </trkpt>
      <trkpt lat="39.8049" lon="-120.43872">
        <ele>1661.68</ele>
      </trkpt>
      <trkpt lat="39.80493" lon="-120.43867">
        <ele>1662.12</ele>
      </trkpt>
      <trkpt lat="39.80499" lon="-120.43863">
        <ele>1662.99</ele>
      </trkpt>
      <trkpt lat="39.80504" lon="-120.4386">
        <ele>1664.18</ele>
      </trkpt>
      <trkpt lat="39.8051" lon="-120.43859">
        <ele>1665.99</ele>
      </trkpt>
      <trkpt lat="39.80515" lon="-120.43859">
        <ele>1667.49</ele>
      </trkpt>
      <trkpt lat="39.80519" lon="-120.43861">
        <ele>1669.13</ele>
      </trkpt>
      <trkpt lat="39.80523" lon="-120.43867">
        <ele>1671.09</ele>
      </trkpt>
      <trkpt lat="39.80526" lon="-120.43872">
        <ele>1672.46</ele>
      </trkpt>
      <trkpt lat="39.80528" lon="-120.43876">
        <ele>1673.05</ele>
      </trkpt>
      <trkpt lat="39.8053" lon="-120.43877">
        <ele>1673.48</ele>
      </trkpt>
      <trkpt lat="39.80532" lon="-120.43878">
        <ele>1673.91</ele>
      </trkpt>
      <trkpt lat="39.80537" lon="-120.43878">
        <ele>1674.99</ele>
      </trkpt>
      <trkpt lat="39.8054" lon="-120.43877">
        <ele>1675.64</ele>
      </trkpt>
      <trkpt lat="39.80545" lon="-120.43873">
        <ele>1676.72</ele>
      </trkpt>
      <trkpt lat="39.8055" lon="-120.43868">
        <ele>1678.5</ele>
      </trkpt>
      <trkpt lat="39.80557" lon="-120.43865">
        <ele>1680.89</ele>
      </trkpt>
      <trkpt lat="39.80567" lon="-120.43864">
        <ele>1683.78</ele>
      </trkpt>
      <trkpt lat="39.80579" lon="-120.43868">
        <ele>1686.94</ele>
      </trkpt>
      <trkpt lat="39.80586" lon="-120.43868">
        <ele>1688.86</ele>
      </trkpt>
      <trkpt lat="39.80597" lon="-120.43865">
        <ele>1692.9</ele>
      </trkpt>
      <trkpt lat="39.80602" lon="-120.43864">
        <ele>1695.03</ele>
      </trkpt>
      <trkpt lat="39.80608" lon="-120.43862">
        <ele>1696.33</ele>
      </trkpt>
      <trkpt lat="39.80619" lon="-120.43857">
        <ele>1698.7</ele>
      </trkpt>
      <trkpt lat="39.80628" lon="-120.43852">
        <ele>1701.47</ele>
      </trkpt>
      <trkpt lat="39.80638" lon="-120.43846">
        <ele>1705.62</ele>
      </trkpt>
      <trkpt lat="39.80641" lon="-120.43846">
        <ele>1706.54</ele>
      </trkpt>
      <trkpt lat="39.80669" lon="-120.43837">
        <ele>1713.76</ele>
      </trkpt>
      <trkpt lat="39.80674" lon="-120.43834">
        <ele>1715.38</ele>
      </trkpt>
      <trkpt lat="39.80678" lon="-120.4383">
        <ele>1716.17</ele>
      </trkpt>
      <trkpt lat="39.8068" lon="-120.4383">
        <ele>1716.68</ele>
      </trkpt>
      <trkpt lat="39.80682" lon="-120.43829">
        <ele>1717.15</ele>
      </trkpt>
      <trkpt lat="39.80689" lon="-120.43832">
        <ele>1719.24</ele>
      </trkpt>
      <trkpt lat="39.80694" lon="-120.43834">
        <ele>1720.86</ele>
      </trkpt>
      <trkpt lat="39.80697" lon="-120.43836">
        <ele>1721.55</ele>
      </trkpt>
      <trkpt lat="39.80699" lon="-120.43837">
        <ele>1721.98</ele>
      </trkpt>
      <trkpt lat="39.80701" lon="-120.43838">
        <ele>1722.42</ele>
      </trkpt>
      <trkpt lat="39.80704" lon="-120.4384">
        <ele>1723.04</ele>
      </trkpt>
      <trkpt lat="39.80705" lon="-120.43842">
        <ele>1723.15</ele>
      </trkpt>
      <trkpt lat="39.80706" lon="-120.43846">
        <ele>1723.25</ele>
      </trkpt>
      <trkpt lat="39.80705" lon="-120.4385">
        <ele>1723.14</ele>
      </trkpt>
      <trkpt lat="39.80706" lon="-120.43854">
        <ele>1723.02</ele>
      </trkpt>
      <trkpt lat="39.80703" lon="-120.43876">
        <ele>1721.24</ele>
      </trkpt>
      <trkpt lat="39.80705" lon="-120.43884">
        <ele>1720.81</ele>
      </trkpt>
      <trkpt lat="39.80711" lon="-120.43901">
        <ele>1720.72</ele>
      </trkpt>
      <trkpt lat="39.80711" lon="-120.43909">
        <ele>1720.58</ele>
      </trkpt>
      <trkpt lat="39.80712" lon="-120.43914">
        <ele>1720.79</ele>
      </trkpt>
      <trkpt lat="39.8071" lon="-120.43925">
        <ele>1721.26</ele>
      </trkpt>
      <trkpt lat="39.80707" lon="-120.43937">
        <ele>1720.71</ele>
      </trkpt>
      <trkpt lat="39.80705" lon="-120.43944">
        <ele>1720.28</ele>
      </trkpt>
      <trkpt lat="39.80705" lon="-120.43947">
        <ele>1720.28</ele>
      </trkpt>
      <trkpt lat="39.80704" lon="-120.43952">
        <ele>1720.06</ele>
      </trkpt>
      <trkpt lat="39.80704" lon="-120.43959">
        <ele>1720.06</ele>
      </trkpt>
      <trkpt lat="39.80703" lon="-120.43963">
        <ele>1719.85</ele>
      </trkpt>
      <trkpt lat="39.80703" lon="-120.43969">
        <ele>1720.45</ele>
      </trkpt>
      <trkpt lat="39.80702" lon="-120.43974">
        <ele>1720.29</ele>
      </trkpt>
      <trkpt lat="39.80696" lon="-120.43989">
        <ele>1718.34</ele>
      </trkpt>
      <trkpt lat="39.8069" lon="-120.43998">
        <ele>1717.42</ele>
      </trkpt>
      <trkpt lat="39.80685" lon="-120.44005">
        <ele>1717.5</ele>
      </trkpt>
      <trkpt lat="39.8068" lon="-120.4401">
        <ele>1716.96</ele>
      </trkpt>
      <trkpt lat="39.80675" lon="-120.44012">
        <ele>1716.0</ele>
      </trkpt>
      <trkpt lat="39.80669" lon="-120.44016">
        <ele>1714.48</ele>
      </trkpt>
      <trkpt lat="39.80664" lon="-120.44023">
        <ele>1714.1</ele>
      </trkpt>
      <trkpt lat="39.80659" lon="-120.44028">
        <ele>1713.54</ele>
      </trkpt>
      <trkpt lat="39.80654" lon="-120.44035">
        <ele>1712.31</ele>
      </trkpt>
      <trkpt lat="39.8065" lon="-120.44039">
        <ele>1710.84</ele>
      </trkpt>
      <trkpt lat="39.80646" lon="-120.44043">
        <ele>1708.99</ele>
      </trkpt>
      <trkpt lat="39.80643" lon="-120.44048">
        <ele>1707.96</ele>
      </trkpt>
      <trkpt lat="39.80642" lon="-120.44051">
        <ele>1707.85</ele>
      </trkpt>
      <trkpt lat="39.80641" lon="-120.44059">
        <ele>1707.91</ele>
      </trkpt>
      <trkpt lat="39.8064" lon="-120.44064">
        <ele>1707.48</ele>
      </trkpt>
      <trkpt lat="39.8064" lon="-120.44072">
        <ele>1707.48</ele>
      </trkpt>
      <trkpt lat="39.80639" lon="-120.44076">
        <ele>1707.05</ele>
      </trkpt>
      <trkpt lat="39.8064" lon="-120.4408">
        <ele>1707.48</ele>
      </trkpt>
      <trkpt lat="39.80638" lon="-120.44093">
        <ele>1705.62</ele>
      </trkpt>
      <trkpt lat="39.80637" lon="-120.44097">
        <ele>1705.18</ele>
      </trkpt>
      <trkpt lat="39.80637" lon="-120.44103">
        <ele>1705.16</ele>
      </trkpt>
      <trkpt lat="39.80636" lon="-120.44109">
        <ele>1704.51</ele>
      </trkpt>
      <trkpt lat="39.80637" lon="-120.44123">
        <ele>1704.98</ele>
      </trkpt>
      <trkpt lat="39.80639" lon="-120.44133">
        <ele>1706.04</ele>
      </trkpt>
      <trkpt lat="39.80641" lon="-120.4414">
        <ele>1706.59</ele>
      </trkpt>
      <trkpt lat="39.80641" lon="-120.4414">
        <ele>1706.59</ele>
      </trkpt>
      <trkpt lat="39.80643" lon="-120.44145">
        <ele>1706.97</ele>
      </trkpt>
      <trkpt lat="39.80645" lon="-120.44152">
        <ele>1707.64</ele>
      </trkpt>
      <trkpt lat="39.80649" lon="-120.44163">
        <ele>1709.22</ele>
      </trkpt>
      <trkpt lat="39.80654" lon="-120.44173">
        <ele>1709.58</ele>
      </trkpt>
      <trkpt lat="39.80654" lon="-120.44181">
        <ele>1708.92</ele>
      </trkpt>
      <trkpt lat="39.8065" lon="-120.44189">
        <ele>1708.04</ele>
      </trkpt>
      <trkpt lat="39.80647" lon="-120.44198">
        <ele>1707.08</ele>
      </trkpt>
      <trkpt lat="39.80641" lon="-120.44216">
        <ele>1706.1</ele>
      </trkpt>
      <trkpt lat="39.8064" lon="-120.4422">
        <ele>1706.64</ele>
      </trkpt>
      <trkpt lat="39.80636" lon="-120.4423">
        <ele>1707.53</ele>
      </trkpt>
      <trkpt lat="39.80633" lon="-120.44235">
        <ele>1707.99</ele>
      </trkpt>
      <trkpt lat="39.80632" lon="-120.4424">
        <ele>1708.86</ele>
      </trkpt>
      <trkpt lat="39.8063" lon="-120.44244">
        <ele>1709.35</ele>
      </trkpt>
      <trkpt lat="39.80628" lon="-120.44247">
        <ele>1709.62</ele>
      </trkpt>
      <trkpt lat="39.80626" lon="-120.44249">
        <ele>1709.85</ele>
      </trkpt>
      <trkpt lat="39.80624" lon="-120.44253">
        <ele>1710.65</ele>
      </trkpt>
      <trkpt lat="39.80618" lon="-120.44265">
        <ele>1712.52</ele>
      </trkpt>
      <trkpt lat="39.80614" lon="-120.44276">
        <ele>1714.62</ele>
      </trkpt>
      <trkpt lat="39.80607" lon="-120.44289">
        <ele>1717.42</ele>
      </trkpt>
      <trkpt lat="39.80605" lon="-120.44294">
        <ele>1718.5</ele>
      </trkpt>
      <trkpt lat="39.80597" lon="-120.44307">
        <ele>1720.71</ele>
      </trkpt>
      <trkpt lat="39.80589" lon="-120.44318">
        <ele>1722.34</ele>
      </trkpt>
      <trkpt lat="39.80582" lon="-120.44324">
        <ele>1722.99</ele>
      </trkpt>
      <trkpt lat="39.80576" lon="-120.4433">
        <ele>1723.51</ele>
      </trkpt>
      <trkpt lat="39.80571" lon="-120.44336">
        <ele>1723.76</ele>
      </trkpt>
      <trkpt lat="39.80568" lon="-120.44341">
        <ele>1723.89</ele>
      </trkpt>
      <trkpt lat="39.80564" lon="-120.44347">
        <ele>1723.91</ele>
      </trkpt>
      <trkpt lat="39.80562" lon="-120.4435">
        <ele>1723.7</ele>
      </trkpt>
      <trkpt lat="39.80559" lon="-120.44356">
        <ele>1723.49</ele>
      </trkpt>
      <trkpt lat="39.80558" lon="-120.44358">
        <ele>1723.58</ele>
      </trkpt>
      <trkpt lat="39.80552" lon="-120.44368">
        <ele>1722.77</ele>
      </trkpt>
      <trkpt lat="39.80546" lon="-120.44376">
        <ele>1721.94</ele>
      </trkpt>
      <trkpt lat="39.80543" lon="-120.44382">
        <ele>1721.29</ele>
      </trkpt>
      <trkpt lat="39.80538" lon="-120.44387">
        <ele>1720.21</ele>
      </trkpt>
      <trkpt lat="39.80531" lon="-120.44396">
        <ele>1717.93</ele>
      </trkpt>
      <trkpt lat="39.8052" lon="-120.4441">
        <ele>1714.28</ele>
      </trkpt>
      <trkpt lat="39.80518" lon="-120.44413">
        <ele>1713.85</ele>
      </trkpt>
      <trkpt lat="39.80517" lon="-120.44417">
        <ele>1713.48</ele>
      </trkpt>
      <trkpt lat="39.80517" lon="-120.4442">
        <ele>1713.21</ele>
      </trkpt>
      <trkpt lat="39.80516" lon="-120.44422">
        <ele>1712.76</ele>
      </trkpt>
      <trkpt lat="39.80516" lon="-120.44422">
        <ele>1712.76</ele>
      </trkpt>
      <trkpt lat="39.80516" lon="-120.44423">
        <ele>1712.69</ele>
      </trkpt>
      <trkpt lat="39.80515" lon="-120.44424">
        <ele>1712.37</ele>
      </trkpt>
      <trkpt lat="39.80514" lon="-120.44427">
        <ele>1711.91</ele>
      </trkpt>
      <trkpt lat="39.80512" lon="-120.44437">
        <ele>1710.34</ele>
      </trkpt>
      <trkpt lat="39.80509" lon="-120.44457">
        <ele>1706.61</ele>
      </trkpt>
      <trkpt lat="39.80508" lon="-120.44476">
        <ele>1703.4</ele>
      </trkpt>
      <trkpt lat="39.80509" lon="-120.44457">
        <ele>1706.61</ele>
      </trkpt>
      <trkpt lat="39.80512" lon="-120.44437">
        <ele>1710.34</ele>
      </trkpt>
      <trkpt lat="39.80514" lon="-120.44427">
        <ele>1711.91</ele>
      </trkpt>
      <trkpt lat="39.80515" lon="-120.44424">
        <ele>1712.37</ele>
      </trkpt>
      <trkpt lat="39.80516" lon="-120.44423">
        <ele>1712.69</ele>
      </trkpt>
      <trkpt lat="39.80516" lon="-120.44422">
        <ele>1712.76</ele>
      </trkpt>
      <trkpt lat="39.80516" lon="-120.44422">
        <ele>1712.76</ele>
      </trkpt>
      <trkpt lat="39.80517" lon="-120.4442">
        <ele>1713.21</ele>
      </trkpt>
      <trkpt lat="39.80517" lon="-120.44417">
        <ele>1713.48</ele>
      </trkpt>
      <trkpt lat="39.80518" lon="-120.44413">
        <ele>1713.85</ele>
      </trkpt>
      <trkpt lat="39.8052" lon="-120.4441">
        <ele>1714.28</ele>
      </trkpt>
      <trkpt lat="39.80531" lon="-120.44396">
        <ele>1717.93</ele>
      </trkpt>
      <trkpt lat="39.80538" lon="-120.44387">
        <ele>1720.21</ele>
      </trkpt>
      <trkpt lat="39.80543" lon="-120.44382">
        <ele>1721.29</ele>
      </trkpt>
      <trkpt lat="39.80546" lon="-120.44376">
        <ele>1721.94</ele>
      </trkpt>
      <trkpt lat="39.80552" lon="-120.44368">
        <ele>1722.77</ele>
      </trkpt>
      <trkpt lat="39.80558" lon="-120.44358">
        <ele>1723.58</ele>
      </trkpt>
      <trkpt lat="39.80559" lon="-120.44356">
        <ele>1723.49</ele>
      </trkpt>
      <trkpt lat="39.80562" lon="-120.4435">
        <ele>1723.7</ele>
      </trkpt>
      <trkpt lat="39.80564" lon="-120.44347">
        <ele>1723.91</ele>
      </trkpt>
      <trkpt lat="39.80568" lon="-120.44341">
        <ele>1723.89</ele>
      </trkpt>
      <trkpt lat="39.80571" lon="-120.44336">
        <ele>1723.76</ele>
      </trkpt>
      <trkpt lat="39.80576" lon="-120.4433">
        <ele>1723.51</ele>
      </trkpt>
      <trkpt lat="39.80582" lon="-120.44324">
        <ele>1722.99</ele>
      </trkpt>
      <trkpt lat="39.80589" lon="-120.44318">
        <ele>1722.34</ele>
      </trkpt>
      <trkpt lat="39.80597" lon="-120.44307">
        <ele>1720.71</ele>
      </trkpt>
      <trkpt lat="39.80605" lon="-120.44294">
        <ele>1718.5</ele>
      </trkpt>
      <trkpt lat="39.80607" lon="-120.44289">
        <ele>1717.42</ele>
      </trkpt>
      <trkpt lat="39.80614" lon="-120.44276">
        <ele>1714.62</ele>
      </trkpt>
      <trkpt lat="39.80618" lon="-120.44265">
        <ele>1712.52</ele>
      </trkpt>
      <trkpt lat="39.80624" lon="-120.44253">
        <ele>1710.65</ele>
      </trkpt>
      <trkpt lat="39.80626" lon="-120.44249">
        <ele>1709.85</ele>
      </trkpt>
      <trkpt lat="39.80628" lon="-120.44247">
        <ele>1709.62</ele>
      </trkpt>
      <trkpt lat="39.8063" lon="-120.44244">
        <ele>1709.35</ele>
      </trkpt>
      <trkpt lat="39.80632" lon="-120.4424">
        <ele>1708.86</ele>
      </trkpt>
      <trkpt lat="39.80633" lon="-120.44235">
        <ele>1707.99</ele>
      </trkpt>
      <trkpt lat="39.80636" lon="-120.4423">
        <ele>1707.53</ele>
      </trkpt>
      <trkpt lat="39.8064" lon="-120.4422">
        <ele>1706.64</ele>
      </trkpt>
      <trkpt lat="39.80641" lon="-120.44216">
        <ele>1706.1</ele>
      </trkpt>
      <trkpt lat="39.80647" lon="-120.44198">
        <ele>1707.08</ele>
      </trkpt>
      <trkpt lat="39.8065" lon="-120.44189">
        <ele>1708.04</ele>
      </trkpt>
      <trkpt lat="39.80654" lon="-120.44181">
        <ele>1708.92</ele>
      </trkpt>
      <trkpt lat="39.80654" lon="-120.44173">
        <ele>1709.58</ele>
      </trkpt>
      <trkpt lat="39.80649" lon="-120.44163">
        <ele>1709.22</ele>
      </trkpt>
      <trkpt lat="39.80645" lon="-120.44152">
        <ele>1707.64</ele>
      </trkpt>
      <trkpt lat="39.80643" lon="-120.44145">
        <ele>1706.97</ele>
      </trkpt>
      <trkpt lat="39.80641" lon="-120.4414">
        <ele>1706.59</ele>
      </trkpt>
      <trkpt lat="39.80641" lon="-120.4414">
        <ele>1706.59</ele>
      </trkpt>
      <trkpt lat="39.80639" lon="-120.44133">
        <ele>1706.04</ele>
      </trkpt>
      <trkpt lat="39.80637" lon="-120.44123">
        <ele>1704.98</ele>
      </trkpt>
      <trkpt lat="39.80636" lon="-120.44109">
        <ele>1704.51</ele>
      </trkpt>
      <trkpt lat="39.80637" lon="-120.44103">
        <ele>1705.16</ele>
      </trkpt>
      <trkpt lat="39.80637" lon="-120.44097">
        <ele>1705.18</ele>
      </trkpt>
      <trkpt lat="39.80638" lon="-120.44093">
        <ele>1705.62</ele>
      </trkpt>
      <trkpt lat="39.8064" lon="-120.4408">
        <ele>1707.48</ele>
      </trkpt>
      <trkpt lat="39.80639" lon="-120.44076">
        <ele>1707.05</ele>
      </trkpt>
      <trkpt lat="39.8064" lon="-120.44072">
        <ele>1707.48</ele>
      </trkpt>
      <trkpt lat="39.8064" lon="-120.44064">
        <ele>1707.48</ele>
      </trkpt>
      <trkpt lat="39.80641" lon="-120.44059">
        <ele>1707.91</ele>
      </trkpt>
      <trkpt lat="39.80642" lon="-120.44051">
        <ele>1707.85</ele>
      </trkpt>
      <trkpt lat="39.80643" lon="-120.44048">
        <ele>1707.96</ele>
      </trkpt>
      <trkpt lat="39.80646" lon="-120.44043">
        <ele>1708.99</ele>
      </trkpt>
      <trkpt lat="39.8065" lon="-120.44039">
        <ele>1710.84</ele>
      </trkpt>
      <trkpt lat="39.80654" lon="-120.44035">
        <ele>1712.31</ele>
      </trkpt>
      <trkpt lat="39.80659" lon="-120.44028">
        <ele>1713.54</ele>
      </trkpt>
      <trkpt lat="39.80664" lon="-120.44023">
        <ele>1714.1</ele>
      </trkpt>
      <trkpt lat="39.80669" lon="-120.44016">
        <ele>1714.48</ele>
      </trkpt>
      <trkpt lat="39.80675" lon="-120.44012">
        <ele>1716.0</ele>
      </trkpt>
      <trkpt lat="39.8068" lon="-120.4401">
        <ele>1716.96</ele>
      </trkpt>
      <trkpt lat="39.80685" lon="-120.44005">
        <ele>1717.5</ele>
      </trkpt>
      <trkpt lat="39.8069" lon="-120.43998">
        <ele>1717.42</ele>
      </trkpt>
      <trkpt lat="39.80696" lon="-120.43989">
        <ele>1718.34</ele>
      </trkpt>
      <trkpt lat="39.80702" lon="-120.43974">
        <ele>1720.29</ele>
      </trkpt>
      <trkpt lat="39.80703" lon="-120.43969">
        <ele>1720.45</ele>
      </trkpt>
      <trkpt lat="39.80703" lon="-120.43963">
        <ele>1719.85</ele>
      </trkpt>
      <trkpt lat="39.80704" lon="-120.43959">
        <ele>1720.06</ele>
      </trkpt>
      <trkpt lat="39.80704" lon="-120.43952">
        <ele>1720.06</ele>
      </trkpt>
      <trkpt lat="39.80705" lon="-120.43947">
        <ele>1720.28</ele>
      </trkpt>
      <trkpt lat="39.80705" lon="-120.43944">
        <ele>1720.28</ele>
      </trkpt>
      <trkpt lat="39.80707" lon="-120.43937">
        <ele>1720.71</ele>
      </trkpt>
      <trkpt lat="39.8071" lon="-120.43925">
        <ele>1721.26</ele>
      </trkpt>
      <trkpt lat="39.80712" lon="-120.43914">
        <ele>1720.79</ele>
      </trkpt>
      <trkpt lat="39.80711" lon="-120.43909">
        <ele>1720.58</ele>
      </trkpt>
      <trkpt lat="39.80711" lon="-120.43901">
        <ele>1720.72</ele>
      </trkpt>
      <trkpt lat="39.80705" lon="-120.43884">
        <ele>1720.81</ele>
      </trkpt>
      <trkpt lat="39.80703" lon="-120.43876">
        <ele>1721.24</ele>
      </trkpt>
      <trkpt lat="39.80706" lon="-120.43854">
        <ele>1723.02</ele>
      </trkpt>
      <trkpt lat="39.80705" lon="-120.4385">
        <ele>1723.14</ele>
      </trkpt>
      <trkpt lat="39.80706" lon="-120.43846">
        <ele>1723.25</ele>
      </trkpt>
      <trkpt lat="39.80705" lon="-120.43842">
        <ele>1723.15</ele>
      </trkpt>
      <trkpt lat="39.80704" lon="-120.4384">
        <ele>1723.04</ele>
      </trkpt>
      <trkpt lat="39.80701" lon="-120.43838">
        <ele>1722.42</ele>
      </trkpt>
      <trkpt lat="39.80699" lon="-120.43837">
        <ele>1721.98</ele>
      </trkpt>
      <trkpt lat="39.80697" lon="-120.43836">
        <ele>1721.55</ele>
      </trkpt>
      <trkpt lat="39.80694" lon="-120.43834">
        <ele>1720.86</ele>
      </trkpt>
      <trkpt lat="39.80689" lon="-120.43832">
        <ele>1719.24</ele>
      </trkpt>
      <trkpt lat="39.80682" lon="-120.43829">
        <ele>1717.15</ele>
      </trkpt>
      <trkpt lat="39.8068" lon="-120.4383">
        <ele>1716.68</ele>
      </trkpt>
      <trkpt lat="39.80678" lon="-120.4383">
        <ele>1716.17</ele>
      </trkpt>
      <trkpt lat="39.80674" lon="-120.43834">
        <ele>1715.38</ele>
      </trkpt>
      <trkpt lat="39.80669" lon="-120.43837">
        <ele>1713.76</ele>
      </trkpt>
      <trkpt lat="39.80641" lon="-120.43846">
        <ele>1706.54</ele>
      </trkpt>
      <trkpt lat="39.80638" lon="-120.43846">
        <ele>1705.62</ele>
      </trkpt>
      <trkpt lat="39.80628" lon="-120.43852">
        <ele>1701.47</ele>
      </trkpt>
      <trkpt lat="39.80619" lon="-120.43857">
        <ele>1698.7</ele>
      </trkpt>
      <trkpt lat="39.80608" lon="-120.43862">
        <ele>1696.33</ele>
      </trkpt>
      <trkpt lat="39.80602" lon="-120.43864">
        <ele>1695.03</ele>
      </trkpt>
      <trkpt lat="39.80597" lon="-120.43865">
        <ele>1692.9</ele>
      </trkpt>
      <trkpt lat="39.80586" lon="-120.43868">
        <ele>1688.86</ele>
      </trkpt>
      <trkpt lat="39.80579" lon="-120.43868">
        <ele>1686.94</ele>
      </trkpt>
      <trkpt lat="39.80567" lon="-120.43864">
        <ele>1683.78</ele>
      </trkpt>
      <trkpt lat="39.80557" lon="-120.43865">
        <ele>1680.89</ele>
      </trkpt>
      <trkpt lat="39.8055" lon="-120.43868">
        <ele>1678.5</ele>
      </trkpt>
      <trkpt lat="39.80545" lon="-120.43873">
        <ele>1676.72</ele>
      </trkpt>
      <trkpt lat="39.8054" lon="-120.43877">
        <ele>1675.64</ele>
      </trkpt>
      <trkpt lat="39.80537" lon="-120.43878">
        <ele>1674.99</ele>
      </trkpt>
      <trkpt lat="39.80532" lon="-120.43878">
        <ele>1673.91</ele>
      </trkpt>
      <trkpt lat="39.8053" lon="-120.43877">
        <ele>1673.48</ele>
      </trkpt>
      <trkpt lat="39.80528" lon="-120.43876">
        <ele>1673.05</ele>
      </trkpt>
      <trkpt lat="39.80526" lon="-120.43872">
        <ele>1672.46</ele>
      </trkpt>
      <trkpt lat="39.80523" lon="-120.43867">
        <ele>1671.09</ele>
      </trkpt>
      <trkpt lat="39.80519" lon="-120.43861">
        <ele>1669.13</ele>
      </trkpt>
      <trkpt lat="39.80515" lon="-120.43859">
        <ele>1667.49</ele>
      </trkpt>
      <trkpt lat="39.8051" lon="-120.43859">
        <ele>1665.99</ele>
      </trkpt>
      <trkpt lat="39.80504" lon="-120.4386">
        <ele>1664.18</ele>
      </trkpt>
      <trkpt lat="39.80499" lon="-120.43863">
        <ele>1662.99</ele>
      </trkpt>
      <trkpt lat="39.80493" lon="-120.43867">
        <ele>1662.12</ele>
      </trkpt>
      <trkpt lat="39.8049" lon="-120.43872">
        <ele>1661.68</ele>
      </trkpt>
      <trkpt lat="39.80487" lon="-120.43874">
        <ele>1660.96</ele>
      </trkpt>
      <trkpt lat="39.80483" lon="-120.43876">
        <ele>1660.23</ele>
      </trkpt>
      <trkpt lat="39.80481" lon="-120.43876">
        <ele>1659.86</ele>
      </trkpt>
      <trkpt lat="39.80478" lon="-120.43874">
        <ele>1659.1</ele>
      </trkpt>
      <trkpt lat="39.80475" lon="-120.43871">
        <ele>1658.55</ele>
      </trkpt>
      <trkpt lat="39.80464" lon="-120.43864">
        <ele>1655.26</ele>
      </trkpt>
      <trkpt lat="39.80456" lon="-120.43859">
        <ele>1652.69</ele>
      </trkpt>
      <trkpt lat="39.80451" lon="-120.43856">
        <ele>1651.55</ele>
      </trkpt>
      <trkpt lat="39.80448" lon="-120.43855">
        <ele>1650.98</ele>
      </trkpt>
      <trkpt lat="39.80443" lon="-120.43856">
        <ele>1650.38</ele>
      </trkpt>
      <trkpt lat="39.80435" lon="-120.43857">
        <ele>1649.96</ele>
      </trkpt>
      <trkpt lat="39.80424" lon="-120.43857">
        <ele>1647.79</ele>
      </trkpt>
      <trkpt lat="39.80421" lon="-120.43856">
        <ele>1647.47</ele>
      </trkpt>
      <trkpt lat="39.80413" lon="-120.43856">
        <ele>1646.21</ele>
      </trkpt>
      <trkpt lat="39.80408" lon="-120.43856">
        <ele>1645.13</ele>
      </trkpt>
      <trkpt lat="39.80382" lon="-120.43862">
        <ele>1639.51</ele>
      </trkpt>
      <trkpt lat="39.80378" lon="-120.43864">
        <ele>1638.82</ele>
      </trkpt>
      <trkpt lat="39.80375" lon="-120.43867">
        <ele>1638.5</ele>
      </trkpt>
      <trkpt lat="39.80372" lon="-120.43873">
        <ele>1638.46</ele>
      </trkpt>
      <trkpt lat="39.80369" lon="-120.43879">
        <ele>1638.78</ele>
      </trkpt>
      <trkpt lat="39.80366" lon="-120.43885">
        <ele>1638.53</ele>
      </trkpt>
      <trkpt lat="39.8036" lon="-120.4389">
        <ele>1637.88</ele>
      </trkpt>
      <trkpt lat="39.80354" lon="-120.43896">
        <ele>1637.23</ele>
      </trkpt>
      <trkpt lat="39.80349" lon="-120.43902">
        <ele>1636.69</ele>
      </trkpt>
      <trkpt lat="39.80347" lon="-120.43908">
        <ele>1636.41</ele>
      </trkpt>
      <trkpt lat="39.80347" lon="-120.43918">
        <ele>1635.19</ele>
      </trkpt>
      <trkpt lat="39.80346" lon="-120.43921">
        <ele>1634.43</ele>
      </trkpt>
      <trkpt lat="39.80344" lon="-120.43924">
        <ele>1633.57</ele>
      </trkpt>
      <trkpt lat="39.80342" lon="-120.43927">
        <ele>1632.88</ele>
      </trkpt>
      <trkpt lat="39.80336" lon="-120.43931">
        <ele>1632.06</ele>
      </trkpt>
      <trkpt lat="39.8033" lon="-120.43936">
        <ele>1630.55</ele>
      </trkpt>
      <trkpt lat="39.80325" lon="-120.43943">
        <ele>1629.26</ele>
      </trkpt>
      <trkpt lat="39.80319" lon="-120.43952">
        <ele>1627.64</ele>
      </trkpt>
      <trkpt lat="39.80317" lon="-120.43955">
        <ele>1627.06</ele>
      </trkpt>
      <trkpt lat="39.80313" lon="-120.43958">
        <ele>1626.34</ele>
      </trkpt>
      <trkpt lat="39.8031" lon="-120.4396">
        <ele>1625.8</ele>
      </trkpt>
      <trkpt lat="39.80301" lon="-120.43963">
        <ele>1624.5</ele>
      </trkpt>
      <trkpt lat="39.80292" lon="-120.43966">
        <ele>1623.21</ele>
      </trkpt>
      <trkpt lat="39.8028" lon="-120.4397">
        <ele>1620.72</ele>
      </trkpt>
      <trkpt lat="39.80273" lon="-120.43972">
        <ele>1618.48</ele>
      </trkpt>
      <trkpt lat="39.80259" lon="-120.43981">
        <ele>1613.97</ele>
      </trkpt>
      <trkpt lat="39.80257" lon="-120.43985">
        <ele>1612.6</ele>
      </trkpt>
      <trkpt lat="39.80246" lon="-120.43994">
        <ele>1608.78</ele>
      </trkpt>
      <trkpt lat="39.8024" lon="-120.43997">
        <ele>1607.16</ele>
      </trkpt>
      <trkpt lat="39.80233" lon="-120.44001">
        <ele>1605.22</ele>
      </trkpt>
      <trkpt lat="39.80227" lon="-120.44005">
        <ele>1603.01</ele>
      </trkpt>
      <trkpt lat="39.80222" lon="-120.44008">
        <ele>1601.09</ele>
      </trkpt>
      <trkpt lat="39.80215" lon="-120.44013">
        <ele>1599.04</ele>
      </trkpt>
      <trkpt lat="39.80205" lon="-120.4402">
        <ele>1596.12</ele>
      </trkpt>
      <trkpt lat="39.802" lon="-120.44024">
        <ele>1594.61</ele>
      </trkpt>
      <trkpt lat="39.80185" lon="-120.44031">
        <ele>1590.96</ele>
      </trkpt>
      <trkpt lat="39.80172" lon="-120.44036">
        <ele>1588.15</ele>
      </trkpt>
      <trkpt lat="39.80154" lon="-120.44042">
        <ele>1584.07</ele>
      </trkpt>
      <trkpt lat="39.80148" lon="-120.44043">
        <ele>1582.31</ele>
      </trkpt>
      <trkpt lat="39.80143" lon="-120.44043">
        <ele>1580.69</ele>
      </trkpt>
      <trkpt lat="39.8014" lon="-120.44043">
        <ele>1579.72</ele>
      </trkpt>
      <trkpt lat="39.80136" lon="-120.44042">
        <ele>1578.84</ele>
      </trkpt>
      <trkpt lat="39.80132" lon="-120.44039">
        <ele>1578.3</ele>
      </trkpt>
      <trkpt lat="39.80123" lon="-120.44032">
        <ele>1577.67</ele>
      </trkpt>
      <trkpt lat="39.80118" lon="-120.4403">
        <ele>1578.27</ele>
      </trkpt>
      <trkpt lat="39.80116" lon="-120.44031">
        <ele>1578.6</ele>
      </trkpt>
      <trkpt lat="39.80113" lon="-120.44032">
        <ele>1579.14</ele>
      </trkpt>
      <trkpt lat="39.80111" lon="-120.44036">
        <ele>1579.13</ele>
      </trkpt>
      <trkpt lat="39.80109" lon="-120.44042">
        <ele>1579.46</ele>
      </trkpt>
      <trkpt lat="39.80108" lon="-120.44051">
        <ele>1579.33</ele>
      </trkpt>
      <trkpt lat="39.80107" lon="-120.44055">
        <ele>1579.37</ele>
      </trkpt>
      <trkpt lat="39.80107" lon="-120.44064">
        <ele>1579.74</ele>
      </trkpt>
      <trkpt lat="39.80107" lon="-120.44067">
        <ele>1579.78</ele>
      </trkpt>
      <trkpt lat="39.80107" lon="-120.44074">
        <ele>1579.78</ele>
      </trkpt>
      <trkpt lat="39.80112" lon="-120.44088">
        <ele>1577.71</ele>
      </trkpt>
      <trkpt lat="39.80116" lon="-120.44099">
        <ele>1576.74</ele>
      </trkpt>
      <trkpt lat="39.80119" lon="-120.44106">
        <ele>1575.97</ele>
      </trkpt>
      <trkpt lat="39.80123" lon="-120.44113">
        <ele>1575.15</ele>
      </trkpt>
      <trkpt lat="39.80128" lon="-120.44123">
        <ele>1573.81</ele>
      </trkpt>
      <trkpt lat="39.80133" lon="-120.44137">
        <ele>1573.78</ele>
      </trkpt>
      <trkpt lat="39.80137" lon="-120.44164">
        <ele>1573.32</ele>
      </trkpt>
      <trkpt lat="39.80142" lon="-120.44183">
        <ele>1571.99</ele>
      </trkpt>
      <trkpt lat="39.80143" lon="-120.44191">
        <ele>1571.67</ele>
      </trkpt>
      <trkpt lat="39.80145" lon="-120.44199">
        <ele>1571.02</ele>
      </trkpt>
      <trkpt lat="39.80146" lon="-120.44205">
        <ele>1570.7</ele>
      </trkpt>
      <trkpt lat="39.80146" lon="-120.4421">
        <ele>1570.7</ele>
      </trkpt>
      <trkpt lat="39.80147" lon="-120.4422">
        <ele>1570.37</ele>
      </trkpt>
      <trkpt lat="39.80149" lon="-120.44234">
        <ele>1568.72</ele>
      </trkpt>
      <trkpt lat="39.80152" lon="-120.44254">
        <ele>1566.32</ele>
      </trkpt>
      <trkpt lat="39.80152" lon="-120.44257">
        <ele>1566.0</ele>
      </trkpt>
      <trkpt lat="39.80153" lon="-120.4426">
        <ele>1565.43</ele>
      </trkpt>
      <trkpt lat="39.80153" lon="-120.44264">
        <ele>1565.43</ele>
      </trkpt>
      <trkpt lat="39.80154" lon="-120.44267">
        <ele>1565.1</ele>
      </trkpt>
      <trkpt lat="39.80154" lon="-120.4427">
        <ele>1564.94</ele>
      </trkpt>
      <trkpt lat="39.80155" lon="-120.44274">
        <ele>1564.19</ele>
      </trkpt>
      <trkpt lat="39.80155" lon="-120.44279">
        <ele>1563.65</ele>
      </trkpt>
      <trkpt lat="39.80156" lon="-120.44282">
        <ele>1563.0</ele>
      </trkpt>
      <trkpt lat="39.80155" lon="-120.44284">
        <ele>1563.11</ele>
      </trkpt>
      <trkpt lat="39.80156" lon="-120.44288">
        <ele>1562.35</ele>
      </trkpt>
      <trkpt lat="39.80155" lon="-120.44299">
        <ele>1561.7</ele>
      </trkpt>
      <trkpt lat="39.80156" lon="-120.44303">
        <ele>1561.35</ele>
      </trkpt>
      <trkpt lat="39.80153" lon="-120.44315">
        <ele>1561.46</ele>
      </trkpt>
      <trkpt lat="39.80153" lon="-120.44321">
        <ele>1560.81</ele>
      </trkpt>
      <trkpt lat="39.80152" lon="-120.44326">
        <ele>1560.58</ele>
      </trkpt>
      <trkpt lat="39.80151" lon="-120.44331">
        <ele>1560.69</ele>
      </trkpt>
      <trkpt lat="39.80147" lon="-120.44343">
        <ele>1560.45</ele>
      </trkpt>
      <trkpt lat="39.80139" lon="-120.44363">
        <ele>1562.75</ele>
      </trkpt>
      <trkpt lat="39.80138" lon="-120.44369">
        <ele>1562.53</ele>
      </trkpt>
      <trkpt lat="39.80138" lon="-120.44372">
        <ele>1562.22</ele>
      </trkpt>
      <trkpt lat="39.80137" lon="-120.44377">
        <ele>1562.25</ele>
      </trkpt>
      <trkpt lat="39.80137" lon="-120.44381">
        <ele>1561.75</ele>
      </trkpt>
      <trkpt lat="39.80136" lon="-120.44385">
        <ele>1561.58</ele>
      </trkpt>
      <trkpt lat="39.80136" lon="-120.44389">
        <ele>1560.86</ele>
      </trkpt>
      <trkpt lat="39.80134" lon="-120.44395">
        <ele>1561.51</ele>
      </trkpt>
      <trkpt lat="39.80134" lon="-120.44397">
        <ele>1561.29</ele>
      </trkpt>
      <trkpt lat="39.80133" lon="-120.444">
        <ele>1561.69</ele>
      </trkpt>
      <trkpt lat="39.80132" lon="-120.44412">
        <ele>1561.22</ele>
      </trkpt>
      <trkpt lat="39.80134" lon="-120.44421">
        <ele>1558.92</ele>
      </trkpt>
      <trkpt lat="39.80134" lon="-120.44426">
        <ele>1558.11</ele>
      </trkpt>
      <trkpt lat="39.80135" lon="-120.44431">
        <ele>1557.45</ele>
      </trkpt>
      <trkpt lat="39.80135" lon="-120.44436">
        <ele>1557.22</ele>
      </trkpt>
      <trkpt lat="39.80135" lon="-120.44443">
        <ele>1556.91</ele>
      </trkpt>
      <trkpt lat="39.80134" lon="-120.4445">
        <ele>1556.46</ele>
      </trkpt>
      <trkpt lat="39.80133" lon="-120.44461">
        <ele>1555.77</ele>
      </trkpt>
      <trkpt lat="39.8013" lon="-120.4447">
        <ele>1555.96</ele>
      </trkpt>
      <trkpt lat="39.80129" lon="-120.44475">
        <ele>1555.97</ele>
      </trkpt>
      <trkpt lat="39.80129" lon="-120.44478">
        <ele>1555.65</ele>
      </trkpt>
      <trkpt lat="39.80128" lon="-120.44482">
        <ele>1555.65</ele>
      </trkpt>
      <trkpt lat="39.80127" lon="-120.44488">
        <ele>1555.43</ele>
      </trkpt>
      <trkpt lat="39.80128" lon="-120.44491">
        <ele>1554.7</ele>
      </trkpt>
      <trkpt lat="39.80128" lon="-120.445">
        <ele>1554.53</ele>
      </trkpt>
      <trkpt lat="39.80127" lon="-120.44504">
        <ele>1554.42</ele>
      </trkpt>
      <trkpt lat="39.80127" lon="-120.44507">
        <ele>1554.1</ele>
      </trkpt>
      <trkpt lat="39.80126" lon="-120.4451">
        <ele>1554.1</ele>
      </trkpt>
      <trkpt lat="39.80126" lon="-120.44516">
        <ele>1553.45</ele>
      </trkpt>
      <trkpt lat="39.80121" lon="-120.44535">
        <ele>1553.14</ele>
      </trkpt>
      <trkpt lat="39.8012" lon="-120.44542">
        <ele>1553.14</ele>
      </trkpt>
      <trkpt lat="39.8012" lon="-120.44548">
        <ele>1552.94</ele>
      </trkpt>
      <trkpt lat="39.80119" lon="-120.44552">
        <ele>1552.83</ele>
      </trkpt>
      <trkpt lat="39.80119" lon="-120.44554">
        <ele>1552.61</ele>
      </trkpt>
      <trkpt lat="39.80119" lon="-120.44555">
        <ele>1552.5</ele>
      </trkpt>
      <trkpt lat="39.80119" lon="-120.44557">
        <ele>1552.29</ele>
      </trkpt>
      <trkpt lat="39.80118" lon="-120.44559">
        <ele>1552.4</ele>
      </trkpt>
      <trkpt lat="39.80117" lon="-120.44564">
        <ele>1552.18</ele>
      </trkpt>
      <trkpt lat="39.80116" lon="-120.44574">
        <ele>1551.42</ele>
      </trkpt>
      <trkpt lat="39.80109" lon="-120.44603">
        <ele>1549.33</ele>
      </trkpt>
      <trkpt lat="39.80104" lon="-120.44616">
        <ele>1548.6</ele>
      </trkpt>
      <trkpt lat="39.80099" lon="-120.44627">
        <ele>1548.79</ele>
      </trkpt>
      <trkpt lat="39.80096" lon="-120.44634">
        <ele>1548.79</ele>
      </trkpt>
      <trkpt lat="39.80095" lon="-120.44642">
        <ele>1548.14</ele>
      </trkpt>
      <trkpt lat="39.80093" lon="-120.44648">
        <ele>1547.93</ele>
      </trkpt>
      <trkpt lat="39.80091" lon="-120.44655">
        <ele>1547.78</ele>
      </trkpt>
      <trkpt lat="39.8009" lon="-120.44659">
        <ele>1547.84</ele>
      </trkpt>
      <trkpt lat="39.8009" lon="-120.44662">
        <ele>1547.84</ele>
      </trkpt>
      <trkpt lat="39.8009" lon="-120.44663">
        <ele>1547.84</ele>
      </trkpt>
      <trkpt lat="39.8009" lon="-120.44664">
        <ele>1547.84</ele>
      </trkpt>
      <trkpt lat="39.80089" lon="-120.44665">
        <ele>1548.16</ele>
      </trkpt>
      <trkpt lat="39.80089" lon="-120.44668">
        <ele>1548.02</ele>
      </trkpt>
      <trkpt lat="39.80088" lon="-120.44671">
        <ele>1548.02</ele>
      </trkpt>
      <trkpt lat="39.80086" lon="-120.44676">
        <ele>1548.13</ele>
      </trkpt>
      <trkpt lat="39.80084" lon="-120.44682">
        <ele>1548.13</ele>
      </trkpt>
      <trkpt lat="39.8008" lon="-120.44701">
        <ele>1548.27</ele>
      </trkpt>
      <trkpt lat="39.80076" lon="-120.44711">
        <ele>1549.38</ele>
      </trkpt>
      <trkpt lat="39.80074" lon="-120.44717">
        <ele>1550.02</ele>
      </trkpt>
      <trkpt lat="39.80073" lon="-120.44726">
        <ele>1549.82</ele>
      </trkpt>
      <trkpt lat="39.80073" lon="-120.44735">
        <ele>1549.23</ele>
      </trkpt>
      <trkpt lat="39.80074" lon="-120.44745">
        <ele>1549.02</ele>
      </trkpt>
      <trkpt lat="39.80072" lon="-120.44758">
        <ele>1548.58</ele>
      </trkpt>
      <trkpt lat="39.80072" lon="-120.44766">
        <ele>1548.45</ele>
      </trkpt>
      <trkpt lat="39.80072" lon="-120.44773">
        <ele>1548.45</ele>
      </trkpt>
      <trkpt lat="39.80073" lon="-120.44782">
        <ele>1547.78</ele>
      </trkpt>
      <trkpt lat="39.80073" lon="-120.44789">
        <ele>1547.23</ele>
      </trkpt>
      <trkpt lat="39.80074" lon="-120.44797">
        <ele>1546.94</ele>
      </trkpt>
      <trkpt lat="39.80073" lon="-120.44805">
        <ele>1546.29</ele>
      </trkpt>
      <trkpt lat="39.80069" lon="-120.44822">
        <ele>1545.32</ele>
      </trkpt>
      <trkpt lat="39.80065" lon="-120.44834">
        <ele>1544.89</ele>
      </trkpt>
      <trkpt lat="39.80062" lon="-120.44842">
        <ele>1544.39</ele>
      </trkpt>
      <trkpt lat="39.80058" lon="-120.4485">
        <ele>1543.94</ele>
      </trkpt>
      <trkpt lat="39.80055" lon="-120.44858">
        <ele>1543.46</ele>
      </trkpt>
      <trkpt lat="39.80053" lon="-120.44862">
        <ele>1543.46</ele>
      </trkpt>
      <trkpt lat="39.80049" lon="-120.44872">
        <ele>1543.24</ele>
      </trkpt>
      <trkpt lat="39.80046" lon="-120.44881">
        <ele>1542.92</ele>
      </trkpt>
      <trkpt lat="39.80042" lon="-120.44894">
        <ele>1542.84</ele>
      </trkpt>
      <trkpt lat="39.80039" lon="-120.44906">
        <ele>1542.52</ele>
      </trkpt>
      <trkpt lat="39.80034" lon="-120.4492">
        <ele>1542.87</ele>
      </trkpt>
      <trkpt lat="39.80032" lon="-120.44925">
        <ele>1543.14</ele>
      </trkpt>
      <trkpt lat="39.8003" lon="-120.44936">
        <ele>1543.19</ele>
      </trkpt>
      <trkpt lat="39.8003" lon="-120.4494">
        <ele>1542.76</ele>
      </trkpt>
      <trkpt lat="39.80029" lon="-120.44948">
        <ele>1542.27</ele>
      </trkpt>
      <trkpt lat="39.80029" lon="-120.44953">
        <ele>1541.8</ele>
      </trkpt>
      <trkpt lat="39.8003" lon="-120.44961">
        <ele>1541.33</ele>
      </trkpt>
      <trkpt lat="39.8003" lon="-120.44969">
        <ele>1540.78</ele>
      </trkpt>
      <trkpt lat="39.8003" lon="-120.44988">
        <ele>1539.82</ele>
      </trkpt>
      <trkpt lat="39.80031" lon="-120.44991">
        <ele>1539.3</ele>
      </trkpt>
      <trkpt lat="39.80031" lon="-120.44995">
        <ele>1539.3</ele>
      </trkpt>
      <trkpt lat="39.80031" lon="-120.44999">
        <ele>1539.3</ele>
      </trkpt>
      <trkpt lat="39.80032" lon="-120.45004">
        <ele>1538.66</ele>
      </trkpt>
      <trkpt lat="39.80032" lon="-120.45009">
        <ele>1538.12</ele>
      </trkpt>
      <trkpt lat="39.80032" lon="-120.45013">
        <ele>1538.09</ele>
      </trkpt>
      <trkpt lat="39.80032" lon="-120.45026">
        <ele>1537.28</ele>
      </trkpt>
      <trkpt lat="39.80032" lon="-120.45032">
        <ele>1536.88</ele>
      </trkpt>
      <trkpt lat="39.80033" lon="-120.45037">
        <ele>1536.31</ele>
      </trkpt>
      <trkpt lat="39.80032" lon="-120.45051">
        <ele>1535.36</ele>
      </trkpt>
      <trkpt lat="39.80032" lon="-120.45058">
        <ele>1534.82</ele>
      </trkpt>
      <trkpt lat="39.80032" lon="-120.45069">
        <ele>1533.64</ele>
      </trkpt>
      <trkpt lat="39.80035" lon="-120.45083">
        <ele>1531.48</ele>
      </trkpt>
      <trkpt lat="39.80039" lon="-120.45096">
        <ele>1529.29</ele>
      </trkpt>
      <trkpt lat="39.80041" lon="-120.45105">
        <ele>1528.43</ele>
      </trkpt>
      <trkpt lat="39.80042" lon="-120.45109">
        <ele>1528.05</ele>
      </trkpt>
      <trkpt lat="39.80042" lon="-120.45112">
        <ele>1527.88</ele>
      </trkpt>
      <trkpt lat="39.80042" lon="-120.45115">
        <ele>1527.73</ele>
      </trkpt>
      <trkpt lat="39.80042" lon="-120.45122">
        <ele>1527.37</ele>
      </trkpt>
      <trkpt lat="39.80042" lon="-120.45133">
        <ele>1526.76</ele>
      </trkpt>
      <trkpt lat="39.80041" lon="-120.45138">
        <ele>1526.63</ele>
      </trkpt>
      <trkpt lat="39.80041" lon="-120.45144">
        <ele>1526.57</ele>
      </trkpt>
      <trkpt lat="39.80039" lon="-120.45154">
        <ele>1526.16</ele>
      </trkpt>
      <trkpt lat="39.80038" lon="-120.45169">
        <ele>1525.87</ele>
      </trkpt>
      <trkpt lat="39.80036" lon="-120.45179">
        <ele>1525.71</ele>
      </trkpt>
      <trkpt lat="39.80036" lon="-120.45188">
        <ele>1524.81</ele>
      </trkpt>
      <trkpt lat="39.80035" lon="-120.452">
        <ele>1523.62</ele>
      </trkpt>
      <trkpt lat="39.80034" lon="-120.4521">
        <ele>1522.65</ele>
      </trkpt>
      <trkpt lat="39.80034" lon="-120.45219">
        <ele>1521.68</ele>
      </trkpt>
      <trkpt lat="39.80035" lon="-120.45224">
        <ele>1521.03</ele>
      </trkpt>
      <trkpt lat="39.80034" lon="-120.45229">
        <ele>1520.6</ele>
      </trkpt>
      <trkpt lat="39.80034" lon="-120.45234">
        <ele>1520.06</ele>
      </trkpt>
      <trkpt lat="39.80034" lon="-120.4524">
        <ele>1519.41</ele>
      </trkpt>
      <trkpt lat="39.80032" lon="-120.45248">
        <ele>1519.54</ele>
      </trkpt>
      <trkpt lat="39.80031" lon="-120.45258">
        <ele>1518.79</ele>
      </trkpt>
      <trkpt lat="39.80028" lon="-120.45273">
        <ele>1518.0</ele>
      </trkpt>
      <trkpt lat="39.80028" lon="-120.45277">
        <ele>1518.0</ele>
      </trkpt>
      <trkpt lat="39.80026" lon="-120.45287">
        <ele>1517.2</ele>
      </trkpt>
      <trkpt lat="39.80026" lon="-120.45299">
        <ele>1517.0</ele>
      </trkpt>
      <trkpt lat="39.80027" lon="-120.45304">
        <ele>1517.0</ele>
      </trkpt>
      <trkpt lat="39.80027" lon="-120.45317">
        <ele>1516.0</ele>
      </trkpt>
      <trkpt lat="39.80029" lon="-120.45326">
        <ele>1515.97</ele>
      </trkpt>
      <trkpt lat="39.8003" lon="-120.45331">
        <ele>1515.82</ele>
      </trkpt>
      <trkpt lat="39.8003" lon="-120.45337">
        <ele>1515.46</ele>
      </trkpt>
      <trkpt lat="39.80031" lon="-120.45343">
        <ele>1515.0</ele>
      </trkpt>
      <trkpt lat="39.80031" lon="-120.45348">
        <ele>1515.0</ele>
      </trkpt>
      <trkpt lat="39.80032" lon="-120.45354">
        <ele>1514.77</ele>
      </trkpt>
      <trkpt lat="39.80032" lon="-120.45361">
        <ele>1514.01</ele>
      </trkpt>
      <trkpt lat="39.80031" lon="-120.45366">
        <ele>1514.0</ele>
      </trkpt>
      <trkpt lat="39.80031" lon="-120.45374">
        <ele>1514.0</ele>
      </trkpt>
      <trkpt lat="39.8003" lon="-120.45378">
        <ele>1514.0</ele>
      </trkpt>
      <trkpt lat="39.8003" lon="-120.45387">
        <ele>1514.0</ele>
      </trkpt>
      <trkpt lat="39.80031" lon="-120.45391">
        <ele>1513.92</ele>
      </trkpt>
      <trkpt lat="39.80031" lon="-120.45396">
        <ele>1513.73</ele>
      </trkpt>
      <trkpt lat="39.80033" lon="-120.45405">
        <ele>1513.44</ele>
      </trkpt>
      <trkpt lat="39.80035" lon="-120.4541">
        <ele>1513.22</ele>
      </trkpt>
      <trkpt lat="39.80042" lon="-120.45424">
        <ele>1512.46</ele>
      </trkpt>
      <trkpt lat="39.80049" lon="-120.45436">
        <ele>1511.97</ele>
      </trkpt>
      <trkpt lat="39.80056" lon="-120.45447">
        <ele>1511.05</ele>
      </trkpt>
      <trkpt lat="39.80057" lon="-120.4545">
        <ele>1511.16</ele>
      </trkpt>
      <trkpt lat="39.8006" lon="-120.45453">
        <ele>1511.48</ele>
      </trkpt>
      <trkpt lat="39.80065" lon="-120.45461">
        <ele>1511.23</ele>
      </trkpt>
      <trkpt lat="39.80074" lon="-120.45479">
        <ele>1510.27</ele>
      </trkpt>
      <trkpt lat="39.80093" lon="-120.45552">
        <ele>1506.47</ele>
      </trkpt>
    </trkseg>
  </trk>
</gpx>
